{"version": 0.6, "generator": "Overpass API 0.7.62.1 084b4234", "osm3s": {"timestamp_osm_base": "2024-04-24T14:17:44Z", "copyright": "The data included in this document is from www.openstreetmap.org. The data is made available under ODbL."}, "elements": [{"type": "node", "id": 2427396844, "lat": 45.6156779, "lon": -73.5563766, "tags": {"addr:city": "Montr\u00e9al", "addr:housenumber": "8790", "addr:street": "Boulevard M\u00e9tropolitain", "amenity": "cafe", "cuisine": "coffee_shop;sandwich", "internet_access": "yes", "name": "cafe QG", "source": "NRCan-CanVec-10.0"}}, {"type": "node", "id": 2496131056, "lat": 45.5977072, "lon": -73.5695089, "tags": {"addr:housenumber": "7100", "addr:postcode": "H1M 3S3", "addr:province": "QC", "addr:street": "Rue Jean Talon Est", "addr:suburb": "Mercier-Hochelaga-Maisonneuve", "amenity": "cafe", "internet_access": "wlan", "internet_access:fee": "no", "name": "Caf\u00e9 Vienne", "phone": "+1 514 354 1793", "website": "https://www.cafevienne.com/"}}, {"type": "node", "id": 2496360533, "lat": 45.6017869, "lon": -73.5649187, "tags": {"addr:housenumber": "7999", "addr:postcode": "H1M 1W6", "addr:province": "QC", "addr:street": "Boulevard des Galeries d'Anjou", "addr:suburb": "Mercier-Hochelaga-Maisonneuve", "amenity": "cafe", "brand": "Caf\u00e9 D\u00e9p\u00f4t", "brand:wikidata": "Q64924449", "cuisine": "coffee_shop;cake;bagel;bistro", "internet_access": "wlan", "name": "Caf\u00e9 D\u00e9p\u00f4t", "phone": "+1 514 493 6185", "takeaway": "yes", "website": "https://www.cafedepot.com/"}}, {"type": "node", "id": 2496360540, "lat": 45.5971921, "lon": -73.5617998, "tags": {"addr:housenumber": "7275", "addr:postcode": "H1M 2W2", "addr:province": "QC", "addr:street": "Boulevard des Galeries d'Anjou", "addr:suburb": "Mercier-Hochelaga-Maisonneuve", "amenity": "restaurant", "internet_access": "wlan", "internet_access:fee": "no", "internet_access:operator": "\u00cele Sans Fil", "name": "L'Acad\u00e9mie", "phone": "+1 514 798 8222", "website": "https://www.lacademie.ca/"}}, {"type": "node", "id": 2496360543, "lat": 45.5969015, "lon": -73.5603597, "tags": {"addr:housenumber": "7225", "addr:postcode": "H1M 2W2", "addr:province": "QC", "addr:street": "Boulevard des Galeries d'Anjou", "addr:suburb": "Mercier-Hochelaga-Maisonneuve", "amenity": "restaurant", "brand": "3 Brasseurs", "brand:wikidata": "Q3230326", "brand:wikipedia": "fr:Les 3 Brasseurs", "cuisine": "burger;pizza;seafood", "internet_access": "wlan", "internet_access:fee": "no", "internet_access:operator": "\u00cele Sans Fil", "name": "3 Brewers", "name:fr": "3 Brasseurs", "official_name": "Les 3 Brasseurs", "phone": "+1 514 351 5591", "website": "https://www.les3brasseurs.ca/"}}, {"type": "node", "id": 2496360545, "lat": 45.5970644, "lon": -73.5613062, "tags": {"addr:housenumber": "7265", "addr:postcode": "H1M 2W2", "addr:province": "QC", "addr:street": "Boulevard des Galeries d'Anjou", "addr:suburb": "Mercier-Hochelaga-Maisonneuve", "amenity": "restaurant", "internet_access": "wlan", "internet_access:fee": "no", "name": "Madisons New York Grill & Bar", "phone": "+1 514 351 1221", "website": "https://www.madisonsnyc.com/"}}, {"type": "node", "id": 2496360560, "lat": 45.6017033, "lon": -73.564762, "tags": {"addr:housenumber": "7999", "addr:postcode": "H1M 1W6", "addr:province": "QC", "addr:street": "Boulevard des Galeries d'Anjou", "addr:suburb": "Mercier-Hochelaga-Maisonneuve", "amenity": "cafe", "brand": "Second Cup", "brand:wikidata": "Q862180", "cuisine": "coffee_shop", "internet_access": "wlan", "name": "Second Cup", "phone": "+1 514 352 8151", "takeaway": "yes", "website": "https://secondcup.com/"}}, {"type": "node", "id": 2496360564, "lat": 45.6017748, "lon": -73.5646424, "tags": {"addr:housenumber": "7999", "addr:postcode": "H1M 1W9", "addr:province": "QC", "addr:street": "Boulevard des Galeries d'Anjou", "addr:suburb": "Mercier-Hochelaga-Maisonneuve", "amenity": "restaurant", "internet_access": "wlan", "name": "ZIBO! Restaurant-Bar", "phone": "+1 514 903 2509", "website": "https://www.restaurantszibo.com/"}}, {"type": "node", "id": 2934341844, "lat": 45.5975518, "lon": -73.5626548, "tags": {"amenity": "cafe", "brand": "Tim Hortons", "brand:wikidata": "Q175106", "cuisine": "coffee_shop", "name": "Tim Hortons", "takeaway": "yes"}}, {"type": "node", "id": 3458612021, "lat": 45.6021032, "lon": -73.5748487, "tags": {"addr:city": "Anjou", "addr:housenumber": "7150", "addr:postcode": "H1J 1G5", "addr:street": "Rue Jarry Est", "amenity": "cafe", "brand": "Tim Hortons", "brand:wikidata": "Q175106", "cuisine": "coffee_shop", "name": "Tim Hortons", "takeaway": "yes", "website": "https://timhortons.com/"}}]}