{"version": 0.6, "generator": "Overpass API 0.7.62.1 084b4234", "osm3s": {"timestamp_osm_base": "2024-05-11T11:02:06Z", "copyright": "The data included in this document is from www.openstreetmap.org. The data is made available under ODbL."}, "elements": [{"type": "node", "id": 208768477, "lat": 45.5039092, "lon": -73.5715178}, {"type": "node", "id": 300491007, "lat": 45.6052284, "lon": -73.5173941, "tags": {"amenity": "pharmacy", "brand": "Uniprix", "brand:wikidata": "Q683265", "dispensing": "yes", "healthcare": "pharmacy", "name": "Uniprix", "operator": "Uniprix"}}, {"type": "node", "id": 305549398, "lat": 45.497192, "lon": -73.6246414, "tags": {"addr:city": "Montr\u00e9al", "addr:housenumber": "5510", "addr:postcode": "H3T 1Y9", "addr:province": "Qu\u00e9bec", "addr:street": "Chemin de la C\u00f4te-des-Neiges", "amenity": "pharmacy", "brand": "Jean Coutu", "brand:wikidata": "Q3117457", "dispensing": "yes", "drive_through": "no", "healthcare": "pharmacy", "name": "Jean Coutu", "opening_hours": "Mo-Fr 8:00-22:00; Sa-Su 9:00-22:00", "operator": "Groupe Jean Coutu", "phone": "+1-514-344-8338", "website": "https://www.jeancoutu.com/localisateur-succursale/montreal-5510-chemin-de-la-cote-des-neiges-h3t-1y9/215/"}}, {"type": "node", "id": 463988306, "lat": 45.5165804, "lon": -73.5581501, "tags": {"amenity": "pharmacy", "brand": "Pharmaprix", "brand:wikidata": "Q1820137", "brand:wikipedia": "fr:Pharmaprix", "healthcare": "pharmacy", "name": "Pharmaprix", "opening_hours": "Mo-Su 08:00-24:00", "website": "https://www.pharmaprix.ca/en/store-locator/store/29", "website:en": "https://www.pharmaprix.ca/en/store-locator/store/29", "website:fr": "https://www.pharmaprix.ca/fr/store-locator/store/29", "wheelchair": "no"}}, {"type": "node", "id": 497839720, "lat": 45.5251107, "lon": -73.582083, "tags": {"addr:city": "Montr\u00e9al", "addr:housenumber": "501", "addr:postcode": "H2J 1W6", "addr:province": "QC", "addr:street": "Avenue du Mont-Royal Est", "amenity": "pharmacy", "brand": "Jean Coutu", "brand:wikidata": "Q3117457", "brand:wikipedia": "en:Jean Coutu Group", "check_date": "2023-05-29", "drive_through": "no", "healthcare": "pharmacy", "level": "0", "name": "Jean Coutu", "opening_hours": "Mo-Sa 09:00-23:00;Su 09:30-23:00", "payment:mastercard": "yes", "payment:visa": "yes", "wheelchair": "yes"}}, {"type": "node", "id": 598277455, "lat": 45.5729964, "lon": -73.5481394}, {"type": "node", "id": 598277456, "lat": 45.5731515, "lon": -73.5486021}, {"type": "node", "id": 665607743, "lat": 45.543654, "lon": -73.6287953, "tags": {"addr:city": "Montr\u00e9al", "addr:housenumber": "531", "addr:postcode": "H2P 1V4", "addr:province": "QC", "addr:street": "Rue Jarry Est", "amenity": "pharmacy", "brand": "Jean Coutu", "brand:wikidata": "Q3117457", "brand:wikipedia": "fr:Groupe Jean Coutu", "dispensing": "yes", "drive_through": "no", "healthcare": "pharmacy", "name": "Jean Coutu", "opening_hours": "Mo-Fr 09:00-21:00; Sa-Su 09:00-20:00", "wheelchair": "yes"}}, {"type": "node", "id": 670906724, "lat": 45.5360732, "lon": -73.6034452, "tags": {"addr:housenumber": "6500", "addr:street": "Rue Saint-Hubert", "amenity": "pharmacy", "branch": "St Hubert", "brand": "Jean Coutu", "brand:wikidata": "Q3117457", "healthcare": "pharmacy", "name": "Jean Coutu", "phone": "+1-514-272-3345", "wheelchair": "yes"}}, {"type": "node", "id": 762255638, "lat": 45.4815765, "lon": -73.5771078, "tags": {"amenity": "pharmacy", "brand": "Pharmaprix", "brand:wikidata": "Q1820137", "brand:wikipedia": "en:Shoppers Drug Mart", "check_date:opening_hours": "2023-04-01", "healthcare": "pharmacy", "name": "Pharmaprix", "opening_hours": "Mo-Fr 09:00-22:00; Sa,Su 09:00-21:00", "website": "https://www.pharmaprix.ca/en/store-locator/store/1855", "website:en": "https://www.pharmaprix.ca/en/store-locator/store/1855", "website:fr": "https://www.pharmaprix.ca/fr/store-locator/store/1855", "wheelchair": "yes"}}, {"type": "node", "id": 780819603, "lat": 45.5548727, "lon": -73.5958337, "tags": {"addr:city": "Montr\u00e9al", "addr:housenumber": "2980", "addr:province": "QC", "addr:street": "Rue B\u00e9langer", "amenity": "pharmacy", "brand": "Jean Coutu", "brand:wikidata": "Q3117457", "brand:wikipedia": "fr:Groupe Jean Coutu", "healthcare": "pharmacy", "name": "Jean Coutu", "operator": "Pierre-Jean Cyr;Mich\u00e8le Favreau"}}, {"type": "node", "id": 827807724, "lat": 45.5083833, "lon": -73.6254272, "tags": {"addr:city": "Montr\u00e9al", "addr:housename": "Centre Commercial Wilderton", "addr:housenumber": "2871", "addr:postcode": "H3S 1P6", "addr:province": "Qu\u00e9bec", "addr:street": "Avenue Van Horne", "amenity": "pharmacy", "brand": "Pharmaprix", "brand:wikidata": "Q1820137", "brand:wikipedia": "fr:Pharmaprix", "designation": "PHARMAPRIX #0030", "dispensing": "yes", "healthcare": "pharmacy", "name": "Pharmaprix", "source": "http://www.pharmaprix.ca", "website": "https://www.pharmaprix.ca/en/store-locator/store/30", "website:en": "https://www.pharmaprix.ca/en/store-locator/store/30", "website:fr": "https://www.pharmaprix.ca/fr/store-locator/store/30"}}, {"type": "node", "id": 890751640, "lat": 45.5730262, "lon": -73.5577368, "tags": {"amenity": "pharmacy", "brand": "Familiprix", "brand:wikidata": "Q3064881", "brand:wikipedia": "fr:Familiprix", "dispensing": "yes", "healthcare": "pharmacy", "name": "Familiprix"}}, {"type": "node", "id": 892659876, "lat": 45.5667643, "lon": -73.5889863, "tags": {"amenity": "pharmacy", "brand": "Jean Coutu", "brand:wikidata": "Q3117457", "brand:wikipedia": "fr:Groupe Jean Coutu", "healthcare": "pharmacy", "name": "Jean Coutu"}}, {"type": "node", "id": 911933854, "lat": 45.5423382, "lon": -73.6123711, "tags": {"addr:city": "Montr\u00e9al", "addr:housenumber": "1025", "addr:province": "QC", "addr:street": "Rue Jean-Talon Est", "amenity": "pharmacy", "brand": "Pharmaprix", "brand:wikidata": "Q1820137", "brand:wikipedia": "fr:Pharmaprix", "healthcare": "pharmacy", "name": "Pharmaprix", "opening_hours": "Mo-Fr 08:00-22:00; Sa,Su 09:00-22:00", "website": "https://www.pharmaprix.ca/en/store-locator/store/1823", "website:en": "https://www.pharmaprix.ca/en/store-locator/store/1823", "website:fr": "https://www.pharmaprix.ca/fr/store-locator/store/1823", "wheelchair": "yes"}}, {"type": "node", "id": 940485919, "lat": 45.5005382, "lon": -73.5674462, "tags": {"amenity": "pharmacy", "brand": "Uniprix", "brand:wikidata": "Q683265", "brand:wikipedia": "fr:Uniprix (pharmacies)", "healthcare": "pharmacy", "name": "Uniprix", "wheelchair": "yes"}}, {"type": "node", "id": 988366381, "lat": 45.5007486, "lon": -73.5719874, "tags": {"amenity": "pharmacy", "brand": "Jean Coutu", "brand:wikidata": "Q3117457", "brand:wikipedia": "fr:Groupe Jean Coutu", "dispensing": "yes", "healthcare": "pharmacy", "name": "Jean Coutu", "wheelchair": "yes"}}, {"type": "node", "id": 988422465, "lat": 45.462988, "lon": -73.5671749, "tags": {"amenity": "pharmacy", "brand": "Jean Coutu", "brand:wikidata": "Q3117457", "brand:wikipedia": "en:Jean Coutu Group", "dispensing": "yes", "healthcare": "pharmacy", "name": "Jean Coutu", "opening_hours": "Mo-Fr 09:00-22:00; Sa,Su 09:00-21:00", "wheelchair": "yes"}}, {"type": "node", "id": 989707334, "lat": 45.4793961, "lon": -73.5816438, "tags": {"amenity": "pharmacy", "brand": "Jean Coutu", "brand:wikidata": "Q3117457", "brand:wikipedia": "en:Jean Coutu Group", "dispensing": "yes", "healthcare": "pharmacy", "name": "Jean Coutu"}}, {"type": "node", "id": 989707335, "lat": 45.4611966, "lon": -73.5669669, "tags": {"addr:city": "Montr\u00e9a", "addr:housenumber": "4260", "addr:street": "Rue Wellington", "amenity": "pharmacy", "atm": "yes", "brand": "Pharmaprix", "brand:wikidata": "Q1820137", "brand:wikipedia": "fr:Pharmaprix", "dispensing": "yes", "drive_through": "no", "healthcare": "pharmacy", "internet_access": "no", "name": "Pharmaprix", "opening_hours": "Mo-Fr 09:00-22:00; Sa,Su 09:00-21:00", "payment:interac": "yes", "payment:mastercard": "yes", "payment:visa": "yes", "source": "Local_knowledge", "website": "https://www.pharmaprix.ca/en/store-locator/store/4", "website:en": "https://www.pharmaprix.ca/en/store-locator/store/4", "website:fr": "https://www.pharmaprix.ca/fr/store-locator/store/4", "wheelchair": "yes"}}, {"type": "node", "id": 989707338, "lat": 45.4554155, "lon": -73.5718056, "tags": {"amenity": "pharmacy", "brand": "Jean Coutu", "brand:wikidata": "Q3117457", "brand:wikipedia": "en:Jean Coutu Group", "dispensing": "yes", "healthcare": "pharmacy", "name": "Jean Coutu", "opening_hours": "Mo-Fr 08:00-22:00, Sa,Su 09:00-21:00"}}, {"type": "node", "id": 1057464632, "lat": 45.505377, "lon": -73.567382, "tags": {"amenity": "pharmacy", "brand": "Pharmaprix", "brand:wikidata": "Q1820137", "brand:wikipedia": "en:Shoppers Drug Mart", "healthcare": "pharmacy", "name": "Pharmaprix", "opening_hours": "Mo-Fr 08:00-22:00; Sa 09:00-22:00; Su 10:00-22:00", "website": "https://www.pharmaprix.ca/en/store-locator/store/45", "website:en": "https://www.pharmaprix.ca/en/store-locator/store/45", "website:fr": "https://www.pharmaprix.ca/fr/store-locator/store/45", "wheelchair": "yes"}}, {"type": "node", "id": 1060172688, "lat": 45.5086217, "lon": -73.5714755, "tags": {"amenity": "pharmacy", "brand": "Jean Coutu", "brand:wikidata": "Q3117457", "brand:wikipedia": "en:Jean Coutu Group", "check_date": "2023-09-22", "healthcare": "pharmacy", "name": "Jean Coutu", "wheelchair": "yes"}}, {"type": "node", "id": 1070167384, "lat": 45.5508574, "lon": -73.573409, "tags": {"amenity": "pharmacy", "brand": "Jean Coutu", "brand:wikidata": "Q3117457", "dispensing": "yes", "healthcare": "pharmacy", "name": "Jean Coutu", "opening_hours": "Mo-Fr 09:00-21:00; Sa,Su 09:00-19:00"}}, {"type": "node", "id": 1192154241, "lat": 45.494018, "lon": -73.5793112, "tags": {"addr:housenumber": "1675", "addr:street": "Rue Sainte-Catherine Ouest", "amenity": "pharmacy", "automatic_door": "yes", "brand": "Jean Coutu", "brand:wikidata": "Q3117457", "brand:wikipedia": "en:Jean Coutu Group", "dispensing": "yes", "door": "sliding", "entrance": "yes", "healthcare": "pharmacy", "name": "Jean Coutu", "opening_hours": "Mo-Su 09:00-22:00", "wheelchair": "yes"}}, {"type": "node", "id": 1201303585, "lat": 45.495244, "lon": -73.5773225, "tags": {"addr:city": "Montr\u00e9al", "addr:housenumber": "1500", "addr:postcode": "H3G 1S8", "addr:street": "Rue Sainte-Catherine Ouest", "amenity": "pharmacy", "brand": "Pharmaprix", "brand:wikidata": "Q1820137", "brand:wikipedia": "en:Shoppers Drug Mart", "dispensing": "yes", "healthcare": "pharmacy", "name": "Pharmaprix", "opening_hours": "Mo-Su 08:00-24:00", "phone": "+1-514-933-4744", "website": "https://www.pharmaprix.ca/en/store-locator/store/42", "website:en": "https://www.pharmaprix.ca/en/store-locator/store/42", "website:fr": "https://www.pharmaprix.ca/fr/store-locator/store/42", "wheelchair": "yes"}}, {"type": "node", "id": 1271672564, "lat": 45.5009113, "lon": -73.5697477, "tags": {"amenity": "pharmacy", "brand": "Pharmaprix", "brand:wikidata": "Q1820137", "brand:wikipedia": "fr:Pharmaprix", "dispensing": "yes", "healthcare": "pharmacy", "name": "Pharmaprix", "website": "https://www.pharmaprix.ca/en/store-locator/store/1825", "website:en": "https://www.pharmaprix.ca/en/store-locator/store/1825", "website:fr": "https://www.pharmaprix.ca/fr/store-locator/store/1825", "wheelchair": "yes"}}, {"type": "node", "id": 1302746246, "lat": 45.5432197, "lon": -73.5893299, "tags": {"addr:street": "Boulevard rosemont", "amenity": "pharmacy", "brand": "Proxim", "brand:wikidata": "Q3408523", "brand:wikipedia": "en:Proxim", "dispensing": "yes", "healthcare": "pharmacy", "name": "Proxim"}}, {"type": "node", "id": 1333772125, "lat": 45.4443425, "lon": -73.6473171, "tags": {"amenity": "pharmacy", "brand": "Uniprix", "brand:wikidata": "Q683265", "brand:wikipedia": "fr:Uniprix (pharmacies)", "dispensing": "yes", "healthcare": "pharmacy", "name": "Uniprix"}}, {"type": "node", "id": 1342813464, "lat": 45.5332532, "lon": -73.550768, "tags": {"addr:housenumber": "2600", "addr:postcode": "H2K 4K4", "addr:street": "Ontario E.", "amenity": "pharmacy", "brand": "Familiprix", "brand:wikidata": "Q3064881", "brand:wikipedia": "fr:Familiprix", "check_date": "2023-03-04", "dispensing": "yes", "healthcare": "pharmacy", "name": "Familiprix", "payment:interac": "yes", "payment:mastercard": "yes", "payment:visa": "yes", "website": "http://www.familiprix.com/SectionCorporative/Succursales/VotreSuccursale.aspx?idphweb=461&mode=selsucc", "wheelchair": "yes"}}, {"type": "node", "id": 1371199535, "lat": 45.5343841, "lon": -73.5729776, "tags": {"addr:housenumber": "1990", "addr:postcode": "H2H 1J4", "addr:street": "Mont-royal est", "amenity": "pharmacy", "brand": "Jean Coutu", "brand:wikidata": "Q3117457", "brand:wikipedia": "en:Jean Coutu Group", "check_date": "2022-12-30", "healthcare": "pharmacy", "name": "Jean Coutu", "opening_hours": "Mo-Sa 09:00-22:00; Su 10:00-22:00", "payment:mastercard": "yes", "payment:visa": "yes", "website": "https://www.jeancoutu.com/default.aspx?langType=3084", "wheelchair": "yes"}}, {"type": "node", "id": 1427593053, "lat": 45.4330268, "lon": -73.6304495, "tags": {"addr:city": "Montr\u00e9al", "addr:housenumber": "8371", "addr:postcode": "H8N 1Y4", "addr:province": "QC", "addr:street": "Newman", "amenity": "pharmacy", "brand": "Pharmaprix", "brand:wikidata": "Q1820137", "brand:wikipedia": "fr:Pharmaprix", "dispensing": "yes", "drive_through": "no", "healthcare": "pharmacy", "internet_access": "wlan", "internet_access:fee": "no", "name": "Pharmaprix", "opening_hours": "Mo-Fr 08:00-22:00; Sa-Su 09:00-22:00", "phone": "+1 514-595-8550", "website": "https://www.pharmaprix.ca/en/store-locator/store/79", "website:en": "https://www.pharmaprix.ca/en/store-locator/store/79", "website:fr": "https://www.pharmaprix.ca/fr/store-locator/store/79"}}, {"type": "node", "id": 1433206444, "lat": 45.5375037, "lon": -73.6985509, "tags": {"amenity": "pharmacy", "brand": "Pharmaprix", "brand:wikidata": "Q1820137", "brand:wikipedia": "en:Shoppers Drug Mart", "healthcare": "pharmacy", "name": "Pharmaprix", "website": "https://www.pharmaprix.ca/en/store-locator/store/1806", "website:en": "https://www.pharmaprix.ca/en/store-locator/store/1806", "website:fr": "https://www.pharmaprix.ca/fr/store-locator/store/1806"}}, {"type": "node", "id": 1433206467, "lat": 45.5383442, "lon": -73.6993967, "tags": {"addr:street": "De Salaberry", "amenity": "pharmacy", "brand": "Jean Coutu", "brand:wikidata": "Q3117457", "brand:wikipedia": "fr:Groupe Jean Coutu", "designation": "Jean-Coutu", "healthcare": "pharmacy", "int_name": "Pharmacy Jean-Coutu", "name": "Jean Coutu"}}, {"type": "node", "id": 1513562243, "lat": 45.4909839, "lon": -73.8525238, "tags": {"addr:city": "Pierrefonds", "addr:housenumber": "4930", "addr:postcode": "H9H 4B2", "addr:street": "Boulevard Saint-Jean", "amenity": "pharmacy", "brand": "Jean Coutu", "brand:wikidata": "Q3117457", "brand:wikipedia": "fr:Groupe Jean Coutu", "healthcare": "pharmacy", "name": "Jean Coutu"}}, {"type": "node", "id": 1546480832, "lat": 45.5379405, "lon": -73.6012155, "tags": {"amenity": "pharmacy", "brand": "Jean Coutu", "brand:wikidata": "Q3117457", "brand:wikipedia": "fr:Groupe Jean Coutu", "check_date": "2023-09-10", "healthcare": "pharmacy", "name": "Jean Coutu", "opening_hours": "Mo-Fr 09:00-21:00; Sa,Su 09:00-18:00", "payment:interac": "yes", "payment:mastercard": "yes", "payment:visa": "yes"}}, {"type": "node", "id": 1558671274, "lat": 45.5187614, "lon": -73.594298, "tags": {"amenity": "pharmacy", "healthcare": "pharmacy", "name": "Pharmacie Uniprix Nadine Fadel", "wheelchair": "yes"}}, {"type": "node", "id": 1563142218, "lat": 45.5202843, "lon": -73.5864145, "tags": {"addr:housenumber": "1", "addr:postcode": "H2T 1N4", "addr:street": "Avenue du Mont-Royal Est", "amenity": "pharmacy", "brand": "Pharmaprix", "brand:wikidata": "Q1820137", "brand:wikipedia": "fr:Pharmaprix", "healthcare": "pharmacy", "name": "Pharmaprix", "source": "local knowledge", "website": "https://www.pharmaprix.ca/en/store-locator/store/62", "website:en": "https://www.pharmaprix.ca/en/store-locator/store/62", "website:fr": "https://www.pharmaprix.ca/fr/store-locator/store/62", "wheelchair": "yes"}}, {"type": "node", "id": 1564769930, "lat": 45.4942344, "lon": -73.8772679, "tags": {"amenity": "pharmacy", "brand": "Jean Coutu", "brand:wikidata": "Q3117457", "brand:wikipedia": "en:Jean Coutu Group", "healthcare": "pharmacy", "name": "Jean Coutu"}}, {"type": "node", "id": 1571409601, "lat": 45.5160926, "lon": -73.5770745, "tags": {"amenity": "pharmacy", "brand": "Pharmaprix", "brand:wikidata": "Q1820137", "brand:wikipedia": "en:Shoppers Drug Mart", "check_date": "2023-08-06", "healthcare": "pharmacy", "name": "Pharmaprix", "website": "https://www.pharmaprix.ca/en/store-locator/store/1800", "website:en": "https://www.pharmaprix.ca/en/store-locator/store/1800", "website:fr": "https://www.pharmaprix.ca/fr/store-locator/store/1800", "wheelchair": "yes"}}, {"type": "node", "id": 1613756983, "lat": 45.5172527, "lon": -73.5803392, "tags": {"addr:housenumber": "13", "addr:street": "Rue Rachel Ouest", "amenity": "pharmacy", "dispensing": "yes", "healthcare": "pharmacy", "name": "Pharmacie Louise Dadashzadeh"}}, {"type": "node", "id": 1649132099, "lat": 45.4779987, "lon": -73.5836113, "tags": {"addr:city": "Montr\u00e9al", "addr:housenumber": "3966", "addr:postcode": "H4C 1R1", "addr:province": "Qu\u00e9bec", "addr:street": "Rue Notre-Dame Ouest", "amenity": "pharmacy", "dispensing": "yes", "drive_through": "no", "healthcare": "pharmacy", "name": "Pharmacy Matthieu Omiccioli and Suzanne Paquette"}}, {"type": "node", "id": 1656963712, "lat": 45.6067135, "lon": -73.5849121, "tags": {"amenity": "pharmacy", "branch": "Genevi\u00e8ve Desch\u00eanes", "brand": "Brunet", "brand:wikidata": "Q2926589", "healthcare": "pharmacy", "name": "Brunet"}}, {"type": "node", "id": 1667757369, "lat": 45.4323301, "lon": -73.6363112, "tags": {"amenity": "pharmacy", "brand": "Uniprix", "brand:wikidata": "Q683265", "brand:wikipedia": "fr:Uniprix (pharmacies)", "healthcare": "pharmacy", "name": "Uniprix"}}, {"type": "node", "id": 1709920148, "lat": 45.464816, "lon": -73.6273964, "tags": {"amenity": "pharmacy", "brand": "Pharmaprix", "brand:wikidata": "Q1820137", "brand:wikipedia": "en:Shoppers Drug Mart", "healthcare": "pharmacy", "name": "Pharmaprix", "operator": "Loblaw Companies Limited", "website": "https://www.pharmaprix.ca/en/store-locator/store/55", "website:en": "https://www.pharmaprix.ca/en/store-locator/store/55", "website:fr": "https://www.pharmaprix.ca/fr/store-locator/store/55"}}, {"type": "node", "id": 1743326018, "lat": 45.5207142, "lon": -73.5977563, "tags": {"addr:city": "Montr\u00e9al", "addr:housenumber": "5201", "addr:province": "QC", "addr:street": "Avenue du Parc", "amenity": "pharmacy", "brand": "Jean Coutu", "brand:wikidata": "Q3117457", "check_date": "2022-12-30", "healthcare": "pharmacy", "name": "Jean Coutu", "operator": "Jean-Coutu #262", "payment:mastercard": "yes", "payment:visa": "yes", "phone": "+1-514-279-9191", "wheelchair": "yes"}}, {"type": "node", "id": 1743948436, "lat": 45.5271749, "lon": -73.5895279, "tags": {"amenity": "pharmacy", "brand": "Uniprix", "brand:wikidata": "Q683265", "check_date": "2023-03-04", "healthcare": "pharmacy", "name": "Uniprix", "operator": "Uniprix", "payment:mastercard": "yes", "payment:visa": "yes"}}, {"type": "node", "id": 1768238694, "lat": 45.4365145, "lon": -73.6870711, "tags": {"amenity": "pharmacy", "brand": "Jean Coutu", "brand:wikidata": "Q3117457", "brand:wikipedia": "en:Jean Coutu Group", "dispensing": "yes", "healthcare": "pharmacy", "name": "Jean Coutu"}}, {"type": "node", "id": 1924158649, "lat": 45.5388441, "lon": -73.5605347, "tags": {"addr:housenumber": "2759", "addr:street": "Rue Sherbrooke Est", "amenity": "pharmacy", "brand": "Pharmaprix", "brand:wikidata": "Q1820137", "brand:wikipedia": "fr:Pharmaprix", "dispensing": "yes", "healthcare": "pharmacy", "name": "Pharmaprix", "phone": "+1-514-528-0176", "website": "https://www.pharmaprix.ca/en/store-locator/store/1801", "website:en": "https://www.pharmaprix.ca/en/store-locator/store/1801", "website:fr": "https://www.pharmaprix.ca/fr/store-locator/store/1801"}}, {"type": "node", "id": 1926164478, "lat": 45.4848297, "lon": -73.8592819, "tags": {"addr:city": "Pierrefonds", "addr:housenumber": "4955", "addr:postcode": "H9H 5M9", "addr:street": "St-Pierre", "amenity": "pharmacy", "brand": "Pharmaprix", "brand:wikidata": "Q1820137", "brand:wikipedia": "fr:Pharmaprix", "healthcare": "pharmacy", "name": "Pharmaprix", "website": "https://www.pharmaprix.ca/en/store-locator/store/98", "website:en": "https://www.pharmaprix.ca/en/store-locator/store/98", "website:fr": "https://www.pharmaprix.ca/fr/store-locator/store/98"}}, {"type": "node", "id": 1928373338, "lat": 45.5031952, "lon": -73.8403888, "tags": {"amenity": "pharmacy", "brand": "Uniprix", "brand:wikidata": "Q683265", "brand:wikipedia": "fr:Uniprix (pharmacies)", "healthcare": "pharmacy", "name": "Uniprix"}}, {"type": "node", "id": 1930075572, "lat": 45.5067541, "lon": -73.8190455, "tags": {"addr:city": "Pierrefonds", "addr:housenumber": "4933", "addr:postcode": "H8Y 3E1", "addr:province": "QC", "addr:street": "Boulevard des Sources", "amenity": "pharmacy", "brand": "Pharmaprix", "brand:wikidata": "Q1820137", "brand:wikipedia": "fr:Pharmaprix", "contact:phone": "+1-514-421-2525", "dispensing": "yes", "drive_through": "no", "healthcare": "pharmacy", "name": "Pharmaprix", "website": "https://www.pharmaprix.ca/en/store-locator/store/1827", "website:en": "https://www.pharmaprix.ca/en/store-locator/store/1827", "website:fr": "https://www.pharmaprix.ca/fr/store-locator/store/1827"}}, {"type": "node", "id": 2079875313, "lat": 45.5192217, "lon": -73.6162732, "tags": {"addr:city": "Montr\u00e9al", "addr:housenumber": "1495", "addr:province": "Qu\u00e9bec", "addr:street": "Avenue Van Horne", "amenity": "pharmacy", "brand": "Pharmaprix", "brand:wikidata": "Q1820137", "brand:wikipedia": "en:Shoppers Drug Mart", "drive_through": "no", "healthcare": "pharmacy", "name": "Pharmaprix", "operator": "Pharmaprix", "website": "https://www.pharmaprix.ca/en/store-locator/store/58", "website:en": "https://www.pharmaprix.ca/en/store-locator/store/58", "website:fr": "https://www.pharmaprix.ca/fr/store-locator/store/58"}}, {"type": "node", "id": 2151277993, "lat": 45.4943269, "lon": -73.6383626, "tags": {"addr:city": "Montr\u00e9al", "addr:housenumber": "4815", "addr:postcode": "H3W 1J2", "addr:province": "QC", "addr:street": "Avenue Van Horne", "amenity": "pharmacy", "brand": "Pharmaprix", "brand:wikidata": "Q1820137", "brand:wikipedia": "fr:Pharmaprix", "dispensing": "yes", "drive_through": "no", "healthcare": "pharmacy", "name": "Pharmaprix", "website": "https://www.pharmaprix.ca/en/store-locator/store/18", "website:en": "https://www.pharmaprix.ca/en/store-locator/store/18", "website:fr": "https://www.pharmaprix.ca/fr/store-locator/store/18", "wheelchair": "yes"}}, {"type": "node", "id": 2151385734, "lat": 45.5006715, "lon": -73.6329779}, {"type": "node", "id": 2249495375, "lat": 45.5170706, "lon": -73.6433681, "tags": {"amenity": "pharmacy", "brand": "Pharmaprix", "brand:wikidata": "Q1820137", "healthcare": "pharmacy", "name": "Pharmaprix", "website": "https://www.pharmaprix.ca/en/store-locator/store/1878", "website:en": "https://www.pharmaprix.ca/en/store-locator/store/1878", "website:fr": "https://www.pharmaprix.ca/fr/store-locator/store/1878"}}, {"type": "node", "id": 2249550096, "lat": 45.5206294, "lon": -73.6262192, "tags": {"addr:city": "Mont-Royal", "addr:housenumber": "1365", "addr:street": "Avenue Beaumont", "amenity": "pharmacy", "brand": "Jean Coutu", "brand:wikidata": "Q3117457", "brand:wikipedia": "fr:Groupe Jean Coutu", "healthcare": "pharmacy", "name": "Jean Coutu"}}, {"type": "node", "id": 2295919293, "lat": 45.5111157, "lon": -73.5598783, "tags": {"addr:city": "Momtreal", "addr:housenumber": "235", "addr:postcode": "H2X 1N7", "addr:street": "Boulevard Ren\u00e9-L\u00e9vesque Est", "amenity": "pharmacy", "healthcare": "pharmacy", "name": "Pharmacie Brigitte Tarteaut", "operator": "ProxiMed", "phone": "+1-514-861-2935", "wheelchair": "yes"}}, {"type": "node", "id": 2296591511, "lat": 45.5393036, "lon": -73.6312871}, {"type": "node", "id": 2296591512, "lat": 45.5394461, "lon": -73.6317785}, {"type": "node", "id": 2296591513, "lat": 45.5392194, "lon": -73.631912}, {"type": "node", "id": 2296591514, "lat": 45.5391212, "lon": -73.6313972}, {"type": "node", "id": 2296595515, "lat": 45.5369973, "lon": -73.6119111}, {"type": "node", "id": 2296595516, "lat": 45.5368602, "lon": -73.6116065}, {"type": "node", "id": 2296595517, "lat": 45.5365576, "lon": -73.611884}, {"type": "node", "id": 2296595518, "lat": 45.5366947, "lon": -73.6121886}, {"type": "node", "id": 2323810944, "lat": 45.5450639, "lon": -73.5446514, "tags": {"addr:housenumber": "3600", "addr:postcode": "H1W 1R7", "addr:street": "Rue Ontario Est", "amenity": "pharmacy", "brand": "Jean Coutu", "brand:wikidata": "Q3117457", "brand:wikipedia": "fr:Groupe Jean Coutu", "dispensing": "yes", "healthcare": "pharmacy", "name": "Jean Coutu", "source": "Survey", "website": "https://www.jeancoutu.com/"}}, {"type": "node", "id": 2354379214, "lat": 45.5464815, "lon": -73.5756711, "tags": {"addr:housenumber": "2700", "addr:postcode": "H1Y 1W5", "addr:street": "Masson", "amenity": "pharmacy", "brand": "Jean Coutu", "brand:wikidata": "Q3117457", "check_date:opening_hours": "2023-06-30", "dispensing": "yes", "healthcare": "pharmacy", "name": "Jean Coutu", "opening_hours": "Mo-Fr 09:00-21:00; Sa,Su 09:00-20:00", "website": "https://www.jeancoutu.com/localisateur/detail/2700-rue-Masson/Montreal/QC/H1Y1W5/93/"}}, {"type": "node", "id": 2379217457, "lat": 45.5093211, "lon": -73.6301244, "tags": {"addr:city": "Montr\u00e9al", "addr:housenumber": "6640", "addr:postcode": "H3S 2J5", "addr:province": "Qu\u00e9bec", "addr:street": "Avenue de Darlington", "amenity": "pharmacy", "brand": "Proxim", "brand:wikidata": "Q3408523", "healthcare": "pharmacy", "name": "Proxim"}}, {"type": "node", "id": 2414602090, "lat": 45.5501592, "lon": -73.5346616, "tags": {"addr:city": "Montr\u00e9al", "addr:housenumber": "4251", "addr:postcode": "H1V 1X5", "addr:street": "Rue Sainte-Catherine Est", "amenity": "pharmacy", "brand": "Uniprix", "brand:wikidata": "Q683265", "brand:wikipedia": "en:Uniprix", "healthcare": "pharmacy", "name": "Uniprix", "operator": "Pierre Corbeil & St\u00e9phane Morin", "phone": "+1 514 255 4400", "source": "survey"}}, {"type": "node", "id": 2429838126, "lat": 45.5163531, "lon": -73.55838, "tags": {"addr:housename": "Place Dupuis", "addr:housenumber": "865", "addr:street": "Rue Sainte-Catherine Est", "amenity": "pharmacy", "brand": "Jean Coutu", "brand:wikidata": "Q3117457", "check_date": "2023-03-13", "healthcare": "pharmacy", "name": "Jean Coutu", "payment:interac": "yes", "payment:mastercard": "yes", "payment:visa": "yes", "source": "local_knowledge", "wheelchair:description": "Le 2e \u00e9tage n'est pas accessible."}}, {"type": "node", "id": 2439865438, "lat": 45.5335137, "lon": -73.5838618}, {"type": "node", "id": 2439865441, "lat": 45.5336652, "lon": -73.5841911}, {"type": "node", "id": 2439865443, "lat": 45.533766, "lon": -73.5840965}, {"type": "node", "id": 2439865445, "lat": 45.5337195, "lon": -73.5839955}, {"type": "node", "id": 2439865447, "lat": 45.5337414, "lon": -73.583975}, {"type": "node", "id": 2439865449, "lat": 45.5336364, "lon": -73.5837467}, {"type": "node", "id": 2448273864, "lat": 45.5577365, "lon": -73.5366632, "tags": {"addr:city": "Montr\u00e9al", "addr:housenumber": "4815", "addr:postcode": "H1V 1L6", "addr:street": "Rue Ontario Est", "amenity": "pharmacy", "brand": "Jean Coutu", "brand:wikidata": "Q3117457", "brand:wikipedia": "en:Jean Coutu Group", "healthcare": "pharmacy", "name": "Jean Coutu", "opening_hours": "closed", "phone": "+1 514 254 3507", "website": "https://www.jeancoutu.com/localisateur/detail/4815-rue-Ontario-Est/Montreal/QC/H1V1L6/432/", "wheelchair": "yes"}}, {"type": "node", "id": 2459801767, "lat": 45.4727396, "lon": -73.6250176, "tags": {"addr:city": "Montr\u00e9al", "addr:housenumber": "5820", "addr:street": "Avenue de Monkland", "amenity": "pharmacy", "brand": "Jean Coutu", "brand:wikidata": "Q3117457", "brand:wikipedia": "en:Jean Coutu Group", "contact:phone": "+1-514-487-1411", "contact:website": "http://www.jeancoutu.com/localisateur/detail/5820-avenue-de-Monkland/Montreal/QC/H4A1G1/256/", "healthcare": "pharmacy", "name": "Jean Coutu", "opening_hours": "Mo-Fr 08:00-22:00; Sa-Su 09:00-22:00", "source": "local_knowledge; survey"}}, {"type": "node", "id": 2487460858, "lat": 45.429693, "lon": -73.632249, "tags": {"addr:city": "Lasalle", "addr:street": "Avenue Dollard", "amenity": "pharmacy", "atm": "yes", "brand": "Jean Coutu", "brand:wikidata": "Q3117457", "brand:wikipedia": "fr:Groupe Jean Coutu", "dispensing": "yes", "drive_through": "no", "healthcare": "pharmacy", "internet_access": "no", "name": "Jean Coutu", "source": "local_knowledge", "wheelchair": "yes"}}, {"type": "node", "id": 2493072799, "lat": 45.4934332, "lon": -73.5646301, "tags": {"amenity": "pharmacy", "brand": "Proxim", "brand:wikidata": "Q3408523", "brand:wikipedia": "en:Proxim", "healthcare": "pharmacy", "name": "Proxim", "opening_hours": "Mo-Fr 07:30-22:00; Sa,Su 10:00-19:00"}}, {"type": "node", "id": 2496703494, "lat": 45.4621328, "lon": -73.5668816, "tags": {"amenity": "pharmacy", "brand": "Familiprix", "brand:wikidata": "Q3064881", "brand:wikipedia": "fr:Familiprix", "healthcare": "pharmacy", "name": "Familiprix", "opening_hours": "Mo-Fr 09:00-19:00, Sa 09:00-17:00"}}, {"type": "node", "id": 2503389300, "lat": 45.5525305, "lon": -73.5325646}, {"type": "node", "id": 2503389301, "lat": 45.5524782, "lon": -73.5324006}, {"type": "node", "id": 2503389302, "lat": 45.5525835, "lon": -73.5327305}, {"type": "node", "id": 2503389304, "lat": 45.5526145, "lon": -73.5323118}, {"type": "node", "id": 2503389306, "lat": 45.5527199, "lon": -73.5326416}, {"type": "node", "id": 2511064743, "lat": 45.5514908, "lon": -73.5491142, "tags": {"addr:city": "Montr\u00e9al", "addr:housenumber": "3981", "addr:postcode": "H1W 1K2", "addr:province": "Qu\u00e9bec", "addr:street": "Rue Hochelaga", "amenity": "pharmacy", "brand": "Proxim", "brand:wikidata": "Q3408523", "drive_through": "no", "healthcare": "pharmacy", "name": "Proxim", "operator": "Adam Leung et Ly Thanh Tran", "wheelchair": "yes"}}, {"type": "node", "id": 2518129130, "lat": 45.479793, "lon": -73.6239498, "tags": {"addr:city": "Montr\u00e9al", "addr:housenumber": "5351", "addr:postcode": "H3X 2C3", "addr:province": "Qu\u00e9bec", "addr:street": "Chemin de la C\u00f4te-Saint-Luc", "amenity": "pharmacy", "brand": "Jean Coutu", "brand:wikidata": "Q3117457", "brand:wikipedia": "fr:Groupe Jean Coutu", "healthcare": "pharmacy", "name": "Jean Coutu", "opening_hours": "Mo-Fr 09:00-20:00; Sa 09:00-17:00"}}, {"type": "node", "id": 2519396232, "lat": 45.4890294, "lon": -73.5852322, "tags": {"amenity": "pharmacy", "brand": "Pharmaprix", "brand:wikidata": "Q1820137", "brand:wikipedia": "fr:Pharmaprix", "dispensing": "yes", "healthcare": "pharmacy", "name": "Pharmaprix", "opening_hours": "Mo-Fr 09:00-21:00; Sa,Su 09:00-19:00", "website": "https://www.pharmaprix.ca/en/store-locator/store/22", "website:en": "https://www.pharmaprix.ca/en/store-locator/store/22", "website:fr": "https://www.pharmaprix.ca/fr/store-locator/store/22", "wheelchair": "yes"}}, {"type": "node", "id": 2622987334, "lat": 45.5249928, "lon": -73.6251398, "tags": {"addr:housenumber": "930", "addr:postcode": "h3n1s8", "addr:street": "Rue Jean-Talon Ouest", "amenity": "pharmacy", "automatic_door": "yes", "brand": "Jean Coutu", "brand:wikidata": "Q3117457", "dispensing": "yes", "entrance": "yes", "healthcare": "pharmacy", "name": "Jean Coutu", "opening_hours": "Mo-Fr 09:00-20:00; Sa-Su 10:00-18:00", "wheelchair": "yes"}}, {"type": "node", "id": 2700680912, "lat": 45.5740759, "lon": -73.6485347}, {"type": "node", "id": 2700680913, "lat": 45.5738053, "lon": -73.6487623}, {"type": "node", "id": 2700680916, "lat": 45.5737327, "lon": -73.6485855}, {"type": "node", "id": 2700680918, "lat": 45.5740064, "lon": -73.6483536}, {"type": "node", "id": 2719437323, "lat": 45.524765, "lon": -73.5755644, "tags": {"addr:city": "Montr\u00e9al", "addr:housenumber": "927", "addr:postcode": "H2J 2J2", "addr:street": "Rachel Est", "amenity": "pharmacy", "branch": "Jean Bernatchez", "brand": "Familiprix", "brand:wikidata": "Q3064881", "healthcare": "pharmacy", "name": "Familiprix", "phone": "+1-514-524-3659", "website": "http://www.familiprix.com/SectionCorporative/Succursales/VotreSuccursale.aspx?idphweb=123&mode=selsucc", "wheelchair": "yes"}}, {"type": "node", "id": 2864948610, "lat": 45.4830291, "lon": -73.6300889, "tags": {"addr:city": "Montr\u00e9al", "addr:housenumber": "5345", "addr:postcode": "H3X 1T9", "addr:province": "QC", "addr:street": "Chemin Queen Mary", "amenity": "pharmacy", "brand": "Jean Coutu", "brand:wikidata": "Q3117457", "brand:wikipedia": "fr:Groupe Jean Coutu", "healthcare": "pharmacy", "name": "Jean Coutu"}}, {"type": "node", "id": 2908220753, "lat": 45.5232272, "lon": -73.6048785}, {"type": "node", "id": 2908220754, "lat": 45.5230787, "lon": -73.6045459}, {"type": "node", "id": 2908220755, "lat": 45.5228477, "lon": -73.604756}, {"type": "node", "id": 2908220756, "lat": 45.5229962, "lon": -73.6050886}, {"type": "node", "id": 2949552056, "lat": 45.5520545, "lon": -73.5393164}, {"type": "node", "id": 3025269463, "lat": 45.4860708, "lon": -73.6274287, "tags": {"addr:city": "Montr\u00e9al", "addr:housenumber": "4999", "addr:postcode": "H3W 1X4", "addr:province": "Qu\u00e9bec", "addr:street": "Chemin Queen Mary", "amenity": "pharmacy", "brand": "Pharmaprix", "brand:wikidata": "Q1820137", "brand:wikipedia": "fr:Pharmaprix", "healthcare": "pharmacy", "name": "Pharmaprix", "opening_hours": "Mo-Su 08:00-22:00", "phone": "+1-514-737-5454", "website": "https://www.pharmaprix.ca/en/store-locator/store/1838", "website:en": "https://www.pharmaprix.ca/en/store-locator/store/1838", "website:fr": "https://www.pharmaprix.ca/fr/store-locator/store/1838"}}, {"type": "node", "id": 3030221439, "lat": 45.5193301, "lon": -73.7016666, "tags": {"addr:city": "Saint-Laurent", "addr:housenumber": "2085", "addr:postcode": "H4R 1K4", "addr:street": "Boulevard Marcel-Laurin", "amenity": "pharmacy", "brand": "Jean Coutu", "brand:wikidata": "Q3117457", "brand:wikipedia": "en:Jean Coutu Group", "dispensing": "yes", "healthcare": "pharmacy", "name": "Jean Coutu", "opening_hours": "Mo-Fr 08:30-22:00, Sa 09:00-21:00, Su 09:00-21:00", "phone": "+1-514-745-3003", "website": "https://www.jeancoutu.com/", "wheelchair": "yes"}}, {"type": "node", "id": 3146864633, "lat": 45.4666875, "lon": -73.6553176, "tags": {"amenity": "pharmacy", "brand": "Jean Coutu", "brand:wikidata": "Q3117457", "brand:wikipedia": "fr:Groupe Jean Coutu", "healthcare": "pharmacy", "name": "Jean Coutu"}}, {"type": "node", "id": 3157913531, "lat": 45.4850296, "lon": -73.6276307, "tags": {"addr:city": "Montr\u00e9al", "addr:housenumber": "5150", "addr:postcode": "H3W 1X5", "addr:province": "Qu\u00e9bec", "addr:street": "Chemin Queen Mary", "amenity": "pharmacy", "brand": "Jean Coutu", "brand:wikidata": "Q3117457", "brand:wikipedia": "fr:Groupe Jean Coutu", "healthcare": "pharmacy", "name": "Jean Coutu"}}, {"type": "node", "id": 3158062164, "lat": 45.4663717, "lon": -73.6391568, "tags": {"addr:city": "Montr\u00e9al", "addr:street": "Somerled", "amenity": "pharmacy", "brand": "Jean Coutu", "brand:wikidata": "Q3117457", "brand:wikipedia": "fr:Groupe Jean Coutu", "healthcare": "pharmacy", "name": "Jean Coutu"}}, {"type": "node", "id": 3204050734, "lat": 45.5005394, "lon": -73.6325526}, {"type": "node", "id": 3204050735, "lat": 45.5005732, "lon": -73.6327319}, {"type": "node", "id": 3204050736, "lat": 45.5006087, "lon": -73.6326997}, {"type": "node", "id": 3204050739, "lat": 45.5007931, "lon": -73.6323871}, {"type": "node", "id": 3204050742, "lat": 45.5009457, "lon": -73.6327187}, {"type": "node", "id": 3204051874, "lat": 45.500874, "lon": -73.6327865}, {"type": "node", "id": 3225922347, "lat": 45.4739417, "lon": -73.6239768, "tags": {"addr:city": "Montr\u00e9al", "addr:housenumber": "5730", "addr:postcode": "H4A 1E6", "addr:street": "Avenue de Monkland", "amenity": "pharmacy", "brand": "Pharmaprix", "brand:wikidata": "Q1820137", "healthcare": "pharmacy", "name": "Pharmaprix", "opening_hours": "Mo-Fr 08:00-22:00; Sa-Su 09:00-22:00", "phone": "+1 514 484 6537", "source": "survey", "website": "https://www.pharmaprix.ca/en/store-locator/store/1849", "website:en": "https://www.pharmaprix.ca/en/store-locator/store/1849", "website:fr": "https://www.pharmaprix.ca/fr/store-locator/store/1849"}}, {"type": "node", "id": 3238090866, "lat": 45.6064058, "lon": -73.6176984, "tags": {"amenity": "pharmacy", "brand": "Pharmaprix", "brand:wikidata": "Q1820137", "healthcare": "pharmacy", "name": "Pharmaprix", "website": "https://www.pharmaprix.ca/en/store-locator/store/1871", "website:en": "https://www.pharmaprix.ca/en/store-locator/store/1871", "website:fr": "https://www.pharmaprix.ca/fr/store-locator/store/1871"}}, {"type": "node", "id": 3265512296, "lat": 45.4798025, "lon": -73.5668735, "tags": {"amenity": "pharmacy", "brand": "Brunet", "brand:wikidata": "Q2926589", "healthcare": "pharmacy", "name": "Brunet", "opening_hours": "Mo-Fr 08:30-21:00, Sa,Su 09:00-17:00"}}, {"type": "node", "id": 3308086853, "lat": 45.5596318, "lon": -73.6584536, "tags": {"addr:city": "Montr\u00e9al", "addr:housenumber": "1221", "addr:postcode": "H2C 1R2", "addr:province": "QC", "addr:street": "Rue Fleury Est", "amenity": "pharmacy", "brand": "Jean Coutu", "brand:wikidata": "Q3117457", "brand:wikipedia": "fr:Groupe Jean Coutu", "healthcare": "pharmacy", "name": "Jean Coutu", "operator": "Jean Coutu"}}, {"type": "node", "id": 3513850689, "lat": 45.4764594, "lon": -73.6060722, "tags": {"addr:city": "Montr\u00e9al", "addr:housenumber": "5038", "addr:province": "Qu\u00e9bec", "addr:street": "Rue Sherbrooke Ouest", "amenity": "pharmacy", "brand": "Pharmaprix", "brand:wikidata": "Q1820137", "brand:wikipedia": "fr:Familiprix", "dispensing": "yes", "healthcare": "pharmacy", "name": "Pharmaprix", "phone": "+1-514-484-3531", "website": "https://www.pharmaprix.ca/en/store-locator/store/56", "website:en": "https://www.pharmaprix.ca/en/store-locator/store/56", "website:fr": "https://www.pharmaprix.ca/fr/store-locator/store/56"}}, {"type": "node", "id": 3599913911, "lat": 45.523048, "lon": -73.6050415}, {"type": "node", "id": 3599946247, "lat": 45.5229221, "lon": -73.6046884}, {"type": "node", "id": 3599946249, "lat": 45.5229793, "lon": -73.6046364}, {"type": "node", "id": 3622978531, "lat": 45.5337281, "lon": -73.583946}, {"type": "node", "id": 3649341997, "lat": 45.5230895, "lon": -73.6037919, "tags": {"addr:city": "Montr\u00e9al", "addr:housenumber": "5647", "addr:postcode": "H2V 4H2", "addr:province": "Qu\u00e9bec", "addr:street": "Avenue du Parc", "amenity": "pharmacy", "brand": "Uniprix", "brand:wikidata": "Q683265", "healthcare": "pharmacy", "name": "Uniprix", "phone": "+1 514-276-9353"}}, {"type": "node", "id": 3649852635, "lat": 45.510375, "lon": -73.5749862, "tags": {"amenity": "pharmacy", "brand": "Uniprix", "brand:wikidata": "Q683265", "healthcare": "pharmacy", "name": "Uniprix"}}, {"type": "node", "id": 3653599766, "lat": 45.4937485, "lon": -73.5639065, "tags": {"addr:city": "Montr\u00e9al", "addr:housenumber": "1224", "addr:province": "QC", "addr:street": "Rue Notre-Dame Ouest", "amenity": "pharmacy", "brand": "Jean Coutu", "brand:wikidata": "Q3117457", "brand:wikipedia": "fr:Groupe Jean Coutu", "healthcare": "pharmacy", "name": "Jean Coutu", "wheelchair": "yes"}}, {"type": "node", "id": 3665254232, "lat": 45.5451026, "lon": -73.5449616}, {"type": "node", "id": 3665254238, "lat": 45.5451442, "lon": -73.5450994}, {"type": "node", "id": 3665254240, "lat": 45.545162, "lon": -73.5450884}, {"type": "node", "id": 3665254241, "lat": 45.5451638, "lon": -73.544924}, {"type": "node", "id": 3665254242, "lat": 45.5451841, "lon": -73.545162}, {"type": "node", "id": 3665254244, "lat": 45.5452275, "lon": -73.5451353}, {"type": "node", "id": 3673440878, "lat": 45.5521205, "lon": -73.5392739}, {"type": "node", "id": 3673440879, "lat": 45.5521705, "lon": -73.5394324}, {"type": "node", "id": 3673440881, "lat": 45.5522141, "lon": -73.5398228}, {"type": "node", "id": 3673440882, "lat": 45.5522894, "lon": -73.5393559}, {"type": "node", "id": 3673440883, "lat": 45.552399, "lon": -73.5397039}, {"type": "node", "id": 3686100813, "lat": 45.500615, "lon": -73.6320936, "tags": {"addr:city": "Montr\u00e9al", "addr:housenumber": "6180", "addr:postcode": "H3S 1Z7", "addr:province": "QC", "addr:street": "Chemin de la C\u00f4te-des-Neiges", "amenity": "pharmacy", "brand": "Pharmaprix", "brand:wikidata": "Q1820137", "brand:wikipedia": "fr:Pharmaprix", "dispensing": "yes", "drive_through": "no", "healthcare": "pharmacy", "name": "Pharmaprix", "opening_hours": "Mo-Su 08:00-10:00", "website": "https://www.pharmaprix.ca/en/store-locator/store/84", "website:en": "https://www.pharmaprix.ca/en/store-locator/store/84", "website:fr": "https://www.pharmaprix.ca/fr/store-locator/store/84"}}, {"type": "node", "id": 3696228758, "lat": 45.4675831, "lon": -73.5411117, "tags": {"addr:city": "Verdun", "addr:country": "CA", "addr:housenumber": "38", "addr:postcode": "H3E 1T8", "addr:province": "ON", "addr:street": "Place du Commerce", "alt_name": "Nicole Chamard", "amenity": "pharmacy", "brand": "Shoppers Drug Mart", "brand:wikidata": "Q1820137", "brand:wikipedia": "fr:Pharmaprix", "gst_number": "11574 9814 RT0002", "healthcare": "pharmacy", "name": "Shoppers Drug Mart", "name:en": "Shoppers Drug Mart", "name:fr": "Pharmaprix", "operator": "Loblaw Companies Limited", "phone": "+1 514 762 6666", "qst_number": "1009646309 TQ0"}}, {"type": "node", "id": 3798453617, "lat": 45.4940047, "lon": -73.5566885, "tags": {"addr:city": "Montr\u00e9al", "addr:housenumber": "1000", "addr:postcode": "H3C 1V4", "addr:province": "QC", "addr:street": "Rue Wellington", "amenity": "pharmacy", "amenity_1": "post_office", "brand": "Pharmaprix", "brand:wikidata": "Q1820137", "brand:wikipedia": "fr:Pharmaprix", "check_date:opening_hours": "2022-07-19", "healthcare": "pharmacy", "name": "Pharmaprix", "opening_hours": "Mo-Fr 08:00-22:00; Sa-Su 09:00-21:00", "website": "https://www.pharmaprix.ca/en/store-locator/store/1912", "website:en": "https://www.pharmaprix.ca/en/store-locator/store/1912", "website:fr": "https://www.pharmaprix.ca/fr/store-locator/store/1912", "wheelchair": "yes"}}, {"type": "node", "id": 3948782206, "lat": 45.6046656, "lon": -73.5526852, "tags": {"amenity": "pharmacy", "brand": "Uniprix", "brand:wikidata": "Q683265", "healthcare": "pharmacy", "name": "Uniprix"}}, {"type": "node", "id": 4033851045, "lat": 45.4966391, "lon": -73.5813876, "tags": {"addr:housenumber": "1538", "addr:street": "sherbrooke", "amenity": "pharmacy", "automatic_door": "yes", "brand": "Pharmaprix", "brand:wikidata": "Q1820137", "brand:wikipedia": "fr:Pharmaprix", "dispensing": "yes", "door": "hinged", "entrance": "yes", "healthcare": "pharmacy", "name": "Pharmaprix", "wheelchair": "yes"}}, {"type": "node", "id": 4065099210, "lat": 45.427785, "lon": -73.6295545, "tags": {"addr:city": "Lasalle", "addr:housenumber": "1600", "addr:postcode": "H8N 1T6", "addr:province": "Quebec", "addr:street": "Avenue Dollard", "amenity": "pharmacy", "brand": "Familiprix", "brand:wikidata": "Q3064881", "drive_through": "no", "healthcare": "pharmacy", "name": "Familiprix", "opening_hours": "Mo-Fr 08:00-20:00, Sa-Su 09:00-17:00", "phone": "+1-514-363-7500", "website": "http://www.familiprix.com/"}}, {"type": "node", "id": 4109567650, "lat": 45.5068464, "lon": -73.6605751, "tags": {"amenity": "pharmacy", "brand": "Pharmaprix", "brand:wikidata": "Q1820137", "brand:wikipedia": "fr:Pharmaprix", "healthcare": "pharmacy", "name": "Pharmaprix", "website": "https://www.pharmaprix.ca/en/store-locator/store/1973", "website:en": "https://www.pharmaprix.ca/en/store-locator/store/1973", "website:fr": "https://www.pharmaprix.ca/fr/store-locator/store/1973"}}, {"type": "node", "id": 4232305285, "lat": 45.5964603, "lon": -73.6093182}, {"type": "node", "id": 4232305286, "lat": 45.5962787, "lon": -73.60943}, {"type": "node", "id": 4232305287, "lat": 45.5962638, "lon": -73.6093806}, {"type": "node", "id": 4232305288, "lat": 45.5962178, "lon": -73.6094089}, {"type": "node", "id": 4232306090, "lat": 45.5961565, "lon": -73.6092057}, {"type": "node", "id": 4232306091, "lat": 45.5963842, "lon": -73.6090655}, {"type": "node", "id": 4311573991, "lat": 45.4787229, "lon": -73.5591198, "tags": {"addr:housenumber": "2043", "addr:postcode": "H3K 1W7", "addr:street": "Rue Wellington", "amenity": "pharmacy", "check_date": "2017-03-08", "healthcare": "pharmacy", "name": "FAMILIPRIX H\u00e9on-Ratcliff-Lefebvre", "name:fr": "FAMILIPRIX H\u00e9on-Ratcliff-Lefebvre", "opening_hours": "Mo-Fr 09:00-20:00; Sa 09:00-17:00; Su 10:00-17:00", "website": "http://www.familiprix.com"}}, {"type": "node", "id": 4343329642, "lat": 45.5273557, "lon": -73.6479307, "tags": {"amenity": "pharmacy", "brand": "Pharmaprix", "brand:wikidata": "Q1820137", "brand:wikipedia": "fr:Pharmaprix", "healthcare": "pharmacy", "name": "Pharmaprix", "website": "https://www.pharmaprix.ca/en/store-locator/store/1832", "website:en": "https://www.pharmaprix.ca/en/store-locator/store/1832", "website:fr": "https://www.pharmaprix.ca/fr/store-locator/store/1832"}}, {"type": "node", "id": 4356673489, "lat": 45.5412797, "lon": -73.5600361, "tags": {"addr:housenumber": "2937", "addr:street": "Rue Sherbrooke Est", "amenity": "pharmacy", "brand": "Brunet", "brand:wikidata": "Q2926589", "brand:wikipedia": "en:Brunet (pharmacy)", "healthcare": "pharmacy", "name": "Brunet", "opening_hours": "Mo-Fr 08:00-21:00, Sa,Su 09:00-17:00", "operator": "Fran\u00e7ois Tremblay"}}, {"type": "node", "id": 4362182751, "lat": 45.5420864, "lon": -73.6292589, "tags": {"addr:city": "Montreal", "addr:housenumber": "370", "addr:street": "Jarry Est", "amenity": "pharmacy", "brand": "Jean Coutu", "brand:wikidata": "Q3117457", "brand:wikipedia": "fr:Groupe Jean Coutu", "healthcare": "pharmacy", "name": "Jean Coutu", "website": "https://www.jeancoutu.com/"}}, {"type": "node", "id": 4363584995, "lat": 45.5123961, "lon": -73.5579745, "tags": {"amenity": "pharmacy", "brand": "Jean Coutu", "brand:wikidata": "Q3117457", "brand:wikipedia": "fr:Groupe Jean Coutu", "healthcare": "pharmacy", "name": "Jean Coutu"}}, {"type": "node", "id": 4419500481, "lat": 45.5105408, "lon": -73.6220408, "tags": {"amenity": "pharmacy", "brand": "Jean Coutu", "brand:wikidata": "Q3117457", "healthcare": "pharmacy", "name": "Jean Coutu"}}, {"type": "node", "id": 4421361243, "lat": 45.5155723, "lon": -73.5559563, "tags": {"amenity": "pharmacy", "brand": "Familiprix", "brand:wikidata": "Q3064881", "brand:wikipedia": "fr:Familiprix", "healthcare": "pharmacy", "name": "Familiprix", "opening_hours": "Mo-Th 08:00-18:00, 09:00-18:00; Fr 08:00-17:00; Sa 09:00-16:00", "wheelchair": "yes"}}, {"type": "node", "id": 4459525207, "lat": 45.5874407, "lon": -73.5977428, "tags": {"addr:city": "Montr\u00e9al", "addr:housenumber": "8440", "addr:postcode": "H1R 2A5", "addr:province": "Qu\u00e9bec", "addr:street": "Boulevard Lacordaire", "amenity": "pharmacy", "brand": "Jean Coutu", "brand:wikidata": "Q3117457", "healthcare": "pharmacy", "name": "Jean Coutu", "opening_hours": "Mo-Fr 09:00-21:00; Sa 09:00-20:00; Su 10:00-21:00", "operator": "Jean Coutu", "phone": "+1-514-322-8160", "website": "https://www.jeancoutu.com/localisateur-succursale/montreal-8440-boulevard-lacordaire-h1r-2a5/478/"}}, {"type": "node", "id": 4480116672, "lat": 45.5320335, "lon": -73.5722987, "tags": {"addr:city": "Montr\u00e9al", "addr:housenumber": "1803", "addr:postcode": "H2H 1M2", "addr:province": "Qu\u00e9bec", "addr:street": "Rue Marie-Anne Est", "amenity": "pharmacy", "brand": "Uniprix", "brand:wikidata": "Q683265", "healthcare": "pharmacy", "name": "Uniprix"}}, {"type": "node", "id": 4569095795, "lat": 45.5783257, "lon": -73.6450395, "tags": {"amenity": "pharmacy", "healthcare": "pharmacy", "name": "Pharmacie Jean Coutu"}}, {"type": "node", "id": 4577510840, "lat": 45.5411204, "lon": -73.6401659, "tags": {"addr:housenumber": "8610", "addr:street": "Boulevard Saint-Laurent", "amenity": "pharmacy", "brand": "Jean Coutu", "brand:wikidata": "Q3117457", "brand:wikipedia": "fr:Groupe Jean Coutu", "healthcare": "pharmacy", "name": "Jean Coutu", "opening_hours": "Mo-Fr 09:00-21:00; Sa-Su 09:00-20:00", "operator": "Pharmacie Lynn Blouin"}}, {"type": "node", "id": 4586211634, "lat": 45.5503302, "lon": -73.6508147, "tags": {"addr:city": "Montr\u00e9al", "addr:housenumber": "9465", "addr:street": "Rue Lajeunesse", "amenity": "pharmacy", "brand": "Jean Coutu", "brand:wikidata": "Q3117457", "brand:wikipedia": "fr:Groupe Jean Coutu", "healthcare": "pharmacy", "name": "Jean Coutu", "opening_hours": "09:00-19:00", "phone": "+1-514-389-3575"}}, {"type": "node", "id": 4608433855, "lat": 45.5233953, "lon": -73.5608386, "tags": {"amenity": "pharmacy", "brand": "Brunet", "brand:wikidata": "Q2926589", "dispensing": "yes", "healthcare": "pharmacy", "name": "Brunet", "opening_hours": "Mo-Fr 09:00-18:15; Sa 10:00-17:00; Su off", "wheelchair": "yes"}}, {"type": "node", "id": 4633996850, "lat": 45.5179545, "lon": -73.5640738, "tags": {"amenity": "pharmacy", "brand": "Proximed", "dispensing": "yes", "healthcare": "pharmacy"}}, {"type": "node", "id": 4635381771, "lat": 45.4528585, "lon": -73.6448816, "tags": {"addr:city": "Montr\u00e9al-Ouest", "addr:housenumber": "1", "addr:postcode": "H4X 1Y8", "addr:province": "QC", "addr:street": "Westminster Avenue North", "amenity": "pharmacy", "brand": "Pharmaprix", "brand:wikidata": "Q1820137", "brand:wikipedia": "fr:Pharmaprix", "dispensing": "yes", "drive_through": "no", "healthcare": "pharmacy", "name": "Pharmaprix", "opening_hours": "Mo-Su 08:00-21:00", "operator": "Melissa Ross", "phone": "+1-514-482-8126", "website": "https://www.pharmaprix.ca/en/store-locator/store/1947", "website:en": "https://www.pharmaprix.ca/en/store-locator/store/1947", "website:fr": "https://www.pharmaprix.ca/fr/store-locator/store/1947"}}, {"type": "node", "id": 4740493530, "lat": 45.5052739, "lon": -73.7775772, "tags": {"amenity": "pharmacy", "brand": "Proxim", "brand:wikidata": "Q3408523", "healthcare": "pharmacy", "name": "Proxim"}}, {"type": "node", "id": 4796572726, "lat": 45.5245463, "lon": -73.5838103, "tags": {"addr:housenumber": "4567", "addr:street": "Rue Saint-Denis", "amenity": "pharmacy", "check_date": "2023-08-26", "level": "1", "name": "l'alchimiste en herbe herboristerie", "name:fr": "l'alchimiste en herbe herboristerie", "opening_hours": "Mo-We 10:00-18:00; Fr 10:00-19:00; Th 10:00-20:00; Sa 10:00-17:00; Su 11:00-17:00"}}, {"type": "node", "id": 4839124338, "lat": 45.5489821, "lon": -73.6652759}, {"type": "node", "id": 4839124339, "lat": 45.5487894, "lon": -73.6653815}, {"type": "node", "id": 4839124340, "lat": 45.5486557, "lon": -73.664935}, {"type": "node", "id": 4839124341, "lat": 45.548972, "lon": -73.664748}, {"type": "node", "id": 4839124342, "lat": 45.5490937, "lon": -73.6651348}, {"type": "node", "id": 4908111017, "lat": 45.4594809, "lon": -73.5675041, "tags": {"amenity": "pharmacy", "brand": "Uniprix", "brand:wikidata": "Q683265", "brand:wikipedia": "en:Uniprix", "healthcare": "pharmacy", "level": "0", "name": "Uniprix", "opening_hours": "Mo-Fr 09:00-22:00, Sa 09:00-21:00, Su 10:00-21:00", "wheelchair": "no"}}, {"type": "node", "id": 4927611329, "lat": 45.6899667, "lon": -73.488928, "tags": {"amenity": "pharmacy", "healthcare": "pharmacy", "name": "Phamiliprix", "name:en": "Phamiliprix", "name:fr": "Phamiliprix"}}, {"type": "node", "id": 4927613724, "lat": 45.6549465, "lon": -73.5125612, "tags": {"amenity": "pharmacy", "name": "Jean Coutu", "name:en": "Jean Coutu", "name:fr": "Jean Coutu", "wheelchair": "yes"}}, {"type": "node", "id": 4937403006, "lat": 45.4601465, "lon": -73.5763078, "tags": {"amenity": "pharmacy", "automatic_door": "yes", "brand": "Jean Coutu", "brand:wikidata": "Q3117457", "brand:wikipedia": "fr:Groupe Jean Coutu", "dispensing": "yes", "entrance": "yes", "healthcare": "pharmacy", "level": "0", "name": "Jean Coutu", "wheelchair": "yes"}}, {"type": "node", "id": 5026988394, "lat": 45.5233694, "lon": -73.5769207, "tags": {"addr:housenumber": "767", "addr:street": "Rue Rachel", "amenity": "pharmacy", "fixme": "Est-ce que ce commerce existe toujours?", "name": "Carrefour Sant\u00e9", "website": "www.carrefour-sante-rachel.ca"}}, {"type": "node", "id": 5111491386, "lat": 45.5482343, "lon": -73.5430192, "tags": {"addr:city": "Montr\u00e9al", "addr:housenumber": "3883", "addr:postcode": "H1W 1S7", "addr:province": "Qu\u00e9bec", "addr:street": "Rue Ontario Est", "amenity": "pharmacy", "check_date": "2023-07-15", "healthcare": "pharmacy", "name": "Ngoc-Yen Chau familiprix", "opening_hours": "Mo-Fr 09:30-19:00; Sa 10:00-16:00"}}, {"type": "node", "id": 5111712393, "lat": 45.543734, "lon": -73.545274, "tags": {"addr:housenumber": "3452", "addr:postcode": "H1W 1R2", "addr:street": "Rue Ontario Est", "amenity": "pharmacy", "brand": "Jean Coutu", "brand:wikidata": "Q3117457", "brand:wikipedia": "fr:Groupe Jean Coutu", "building:levels": "0", "fax": "+1-514-522-8108", "healthcare": "pharmacy", "name": "Jean Coutu", "opening_hours": "Mo-Sa 09:00-22:00; Su 10:00-22:00", "phone": "+1-514-522-1126", "website": "https://www.jeancoutu.com/localisateur/detail/3452-rue-Ontario-Est/Montreal/QC/H1W1R2/3/"}}, {"type": "node", "id": 5111760365, "lat": 45.5478498, "lon": -73.5434902, "tags": {"addr:housenumber": "3841", "addr:street": "Rue Ontario Est", "amenity": "pharmacy", "brand": "Pharmaprix", "brand:wikidata": "Q1820137", "brand:wikipedia": "fr:Pharmaprix", "check_date": "2023-07-15", "healthcare": "pharmacy", "name": "Pharmaprix", "website": "https://www.pharmaprix.ca/en/store-locator/store/76", "website:en": "https://www.pharmaprix.ca/en/store-locator/store/76", "website:fr": "https://www.pharmaprix.ca/fr/store-locator/store/76"}}, {"type": "node", "id": 5125636695, "lat": 45.5149636, "lon": -73.5783707, "tags": {"amenity": "pharmacy", "brand": "Familiprix", "brand:wikidata": "Q3064881", "brand:wikipedia": "fr:Familiprix", "healthcare": "pharmacy", "name": "Familiprix"}}, {"type": "node", "id": 5150697461, "lat": 45.5303753, "lon": -73.5767915, "tags": {"addr:city": "Montr\u00e9al", "addr:housenumber": "1370", "addr:postcode": "H2J 1Y7", "addr:province": "QC", "addr:street": "Avenue du Mont-Royal est", "amenity": "pharmacy", "brand": "Jean Coutu", "brand:wikidata": "Q3117457", "brand:wikipedia": "en:Jean Coutu Group", "check_date": "2023-05-29", "healthcare": "pharmacy", "name": "Jean Coutu", "opening_hours": "Mo-Sa 10:00-18:00", "payment:mastercard": "yes", "payment:visa": "yes"}}, {"type": "node", "id": 5217188865, "lat": 45.5234722, "lon": -73.6910838, "tags": {"amenity": "pharmacy", "brand": "Uniprix", "brand:wikidata": "Q683265", "brand:wikipedia": "fr:Uniprix (pharmacies)", "healthcare": "pharmacy", "name": "Uniprix"}}, {"type": "node", "id": 5247475588, "lat": 45.5321342, "lon": -73.7211327, "tags": {"addr:city": "Montr\u00e9al", "addr:housenumber": "5855", "addr:street": "Boulevard Gouin Ouest", "amenity": "pharmacy", "brand": "Jean Coutu", "brand:wikidata": "Q3117457", "brand:wikipedia": "en:Jean Coutu Group", "healthcare": "pharmacy", "name": "Jean Coutu"}}, {"type": "node", "id": 5251008351, "lat": 45.4950879, "lon": -73.6145863, "tags": {"addr:city": "Montr\u00e9al", "addr:housenumber": "4862-2", "addr:postcode": "H3V 1G9", "addr:province": "Quebec", "addr:street": "Chemin de la C\u00f4te-des-Neiges", "amenity": "pharmacy", "brand": "Proxim", "brand:wikidata": "Q3408523", "email": "pharmaciecamillerayes@outlook.com", "healthcare": "pharmacy", "name": "Proxim", "operator": "Camille Rayes"}}, {"type": "node", "id": 5262720341, "lat": 45.4536199, "lon": -73.5946531}, {"type": "node", "id": 5262720342, "lat": 45.4536801, "lon": -73.5943389}, {"type": "node", "id": 5262720343, "lat": 45.4532995, "lon": -73.5942044}, {"type": "node", "id": 5262720344, "lat": 45.45326, "lon": -73.5944045}, {"type": "node", "id": 5269009612, "lat": 45.5152692, "lon": -73.6828108, "tags": {"amenity": "pharmacy", "brand": "Pharmaprix", "brand:wikidata": "Q1820137", "brand:wikipedia": "fr:Pharmaprix", "healthcare": "pharmacy", "name": "Pharmaprix", "website": "https://www.pharmaprix.ca/en/store-locator/store/52", "website:en": "https://www.pharmaprix.ca/en/store-locator/store/52", "website:fr": "https://www.pharmaprix.ca/fr/store-locator/store/52"}}, {"type": "node", "id": 5288450058, "lat": 45.4533802, "lon": -73.5936366}, {"type": "node", "id": 5288450059, "lat": 45.4532903, "lon": -73.5937484}, {"type": "node", "id": 5288450060, "lat": 45.4532634, "lon": -73.5939077}, {"type": "node", "id": 5288450101, "lat": 45.4533561, "lon": -73.5937825}, {"type": "node", "id": 5288450102, "lat": 45.4533279, "lon": -73.5939303}, {"type": "node", "id": 5302611823, "lat": 45.4571043, "lon": -73.5883263}, {"type": "node", "id": 5302611826, "lat": 45.4570338, "lon": -73.5883341}, {"type": "node", "id": 5379465221, "lat": 45.541672, "lon": -73.565014, "tags": {"amenity": "pharmacy", "healthcare": "pharmacy", "name": "Pharmacie Vermette"}}, {"type": "node", "id": 5551302151, "lat": 45.5564991, "lon": -73.6678196, "tags": {"addr:city": "Montr\u00e9al", "addr:housenumber": "609", "addr:province": "QC", "addr:street": "Boulevard Henri-Bourassa Est", "amenity": "pharmacy", "brand": "Uniprix", "brand:wikidata": "Q683265", "brand:wikipedia": "fr:Uniprix (pharmacies)", "description": "M.-Y. Laurin & S. Lussier, pharmaciennes SENC", "dispensing": "yes", "drive_through": "no", "healthcare": "pharmacy", "name": "Uniprix"}}, {"type": "node", "id": 5585549213, "lat": 45.4473855, "lon": -73.5727806, "tags": {"addr:housenumber": "5987", "addr:street": "Rue Verdun", "amenity": "pharmacy", "brand": "Pharmaprix", "brand:wikidata": "Q1820137", "brand:wikipedia": "en:Shoppers Drug Mart", "healthcare": "pharmacy", "name": "Pharmaprix", "website": "https://www.pharmaprix.ca/en/store-locator/store/1885", "website:en": "https://www.pharmaprix.ca/en/store-locator/store/1885", "website:fr": "https://www.pharmaprix.ca/fr/store-locator/store/1885"}}, {"type": "node", "id": 5765927206, "lat": 45.5274616, "lon": -73.7206685, "tags": {"amenity": "pharmacy", "brand": "Proxim", "brand:wikidata": "Q3408523", "dispensing": "yes", "healthcare": "pharmacy", "name": "Proxim"}}, {"type": "node", "id": 5891407623, "lat": 45.5562447, "lon": -73.5705062, "tags": {"addr:city": "Montr\u00e9al", "addr:housenumber": "3815", "addr:postcode": "H1X 1S9", "addr:street": "Rue Masson", "amenity": "pharmacy", "brand": "Familiprix", "brand:wikidata": "Q3064881", "brand:wikipedia": "fr:Familiprix", "dispensing": "yes", "drive_through": "no", "healthcare": "pharmacy", "name": "Familiprix", "opening_hours": "Mo-Fr 09:00-20:00; Sa,Su 10:00-17:00", "operator": "Jean-Maurice Weibel Inc.", "payment:cash": "yes", "payment:credit_cards": "yes", "payment:debit_cards": "yes"}}, {"type": "node", "id": 5967471727, "lat": 45.524767, "lon": -73.5599142, "tags": {"amenity": "pharmacy", "brand": "Pharmaprix", "brand:wikidata": "Q1820137", "brand:wikipedia": "fr:Pharmaprix", "dispensing": "yes", "healthcare": "pharmacy", "name": "Pharmaprix", "opening_hours": "Mo-Su 09:00-22:00", "website": "https://www.pharmaprix.ca/en/store-locator/store/1829", "website:en": "https://www.pharmaprix.ca/en/store-locator/store/1829", "website:fr": "https://www.pharmaprix.ca/fr/store-locator/store/1829"}}, {"type": "node", "id": 6133542045, "lat": 45.4586644, "lon": -73.8926987, "tags": {"amenity": "pharmacy", "brand": "Pharmaprix", "brand:wikidata": "Q1820137", "brand:wikipedia": "en:Shoppers Drug Mart", "dispensing": "yes", "healthcare": "pharmacy", "name": "Pharmaprix", "website": "https://www.pharmaprix.ca/en/store-locator/store/1842", "website:en": "https://www.pharmaprix.ca/en/store-locator/store/1842", "website:fr": "https://www.pharmaprix.ca/fr/store-locator/store/1842"}}, {"type": "node", "id": 6238689786, "lat": 45.5051244, "lon": -73.5570364, "tags": {"amenity": "pharmacy", "healthcare": "pharmacy"}}, {"type": "node", "id": 6698037458, "lat": 45.5354922, "lon": -73.6041078, "tags": {"addr:city": "Montr\u00e9al", "addr:housenumber": "6520", "addr:postcode": "H2S 2N7", "addr:province": "QC", "addr:street": "Avenue De Chateaubriand", "amenity": "pharmacy", "dispensing": "yes", "healthcare": "pharmacy", "name": "Proximed"}}, {"type": "node", "id": 6699461041, "lat": 45.524458, "lon": -73.6722835, "tags": {"amenity": "pharmacy", "brand": "Jean Coutu", "brand:wikidata": "Q3117457", "brand:wikipedia": "en:Jean Coutu Group", "dispensing": "yes", "healthcare": "pharmacy", "name": "Jean Coutu"}}, {"type": "node", "id": 6700418863, "lat": 45.5016967, "lon": -73.6811597, "tags": {"amenity": "pharmacy", "brand": "Proxim", "brand:wikidata": "Q3408523", "dispensing": "yes", "healthcare": "pharmacy", "name": "Proxim"}}, {"type": "node", "id": 6700609885, "lat": 45.5186001, "lon": -73.7025783, "tags": {"amenity": "pharmacy", "brand": "Pharmaprix", "brand:wikidata": "Q1820137", "brand:wikipedia": "en:Shoppers Drug Mart", "dispensing": "yes", "healthcare": "pharmacy", "name": "Pharmaprix", "website": "https://www.pharmaprix.ca/en/store-locator/store/1803", "website:en": "https://www.pharmaprix.ca/en/store-locator/store/1803", "website:fr": "https://www.pharmaprix.ca/fr/store-locator/store/1803"}}, {"type": "node", "id": 6700609900, "lat": 45.520153, "lon": -73.7048354, "tags": {"amenity": "pharmacy", "dispensing": "yes", "healthcare": "pharmacy", "name": "Pharmacie Rania Milane"}}, {"type": "node", "id": 6919372762, "lat": 45.4800782, "lon": -73.5764318, "tags": {"amenity": "pharmacy", "brand": "Brunet", "brand:wikidata": "Q2926589", "brand:wikipedia": "en:Brunet (pharmacy)", "dispensing": "yes", "entrance": "yes", "healthcare": "pharmacy", "name": "Brunet", "opening_hours": "Mo-Fr 08:30-21:00; Sa,Su 09:00-18:00"}}, {"type": "node", "id": 6920527487, "lat": 45.51538, "lon": -73.575098, "tags": {"addr:city": "Montr\u00e9al", "addr:housenumber": "3745", "addr:street": "Boulevard Saint-Laurent", "amenity": "pharmacy", "brand": "Jean Coutu", "brand:wikidata": "Q3117457", "brand:wikipedia": "fr:Groupe Jean Coutu", "check_date": "2023-08-06", "healthcare": "pharmacy", "name": "Jean Coutu", "wheelchair": "yes"}}, {"type": "node", "id": 6960991759, "lat": 45.4672989, "lon": -73.5401483, "tags": {"amenity": "pharmacy", "brand": "Jean Coutu", "brand:wikidata": "Q3117457", "brand:wikipedia": "fr:Groupe Jean Coutu", "dispensing": "yes", "healthcare": "pharmacy", "name": "Jean Coutu"}}, {"type": "node", "id": 7027463592, "lat": 45.5316172, "lon": -73.6073583, "tags": {"addr:housenumber": "161", "addr:street": "Beaubien", "amenity": "pharmacy", "description": "Uniprix", "healthcare": "pharmacy", "name": "Pharmacie S\u00e9bastien Lacroix", "opening_hours": "Mo-Fr 09:00-20:00; Sa 09:00-17:00; Su 10:00-16:00", "phone": "+1-514-273-1586"}}, {"type": "node", "id": 7133620888, "lat": 45.5343393, "lon": -73.6190118, "tags": {"amenity": "pharmacy", "brand": "Familiprix", "brand:wikidata": "Q3064881", "brand:wikipedia": "fr:Familiprix", "dispensing": "yes", "healthcare": "pharmacy", "name": "Familiprix", "opening_hours": "Mo-Fr 09:00-19:00; Sa 09:00-17:00; Su 10:00-17:00", "wheelchair": "yes"}}, {"type": "node", "id": 7133636378, "lat": 45.5385081, "lon": -73.6145411, "tags": {"amenity": "pharmacy", "brand": "Jean Coutu", "brand:wikidata": "Q3117457", "brand:wikipedia": "fr:Groupe Jean Coutu", "dispensing": "yes", "healthcare": "pharmacy", "name": "Jean Coutu", "opening_hours": "Mo-Su 09:00-21:00"}}, {"type": "node", "id": 7351107100, "lat": 45.5244323, "lon": -73.5510528, "tags": {"addr:city": "Montr\u00e9al", "addr:street": "Rue Sainte-Catherine Est;Sainte-Catherine E.", "amenity": "pharmacy", "brand": "Brunet", "brand:wikidata": "Q2926589", "dispensing": "yes", "drive_through": "no", "healthcare": "pharmacy", "name": "Brunet", "operator": "Brunet", "wheelchair": "yes"}}, {"type": "node", "id": 7356726036, "lat": 45.4390397, "lon": -73.6906706, "tags": {"amenity": "pharmacy", "brand": "Pharmaprix", "brand:wikidata": "Q1820137", "brand:wikipedia": "fr:Pharmaprix", "dispensing": "yes", "healthcare": "pharmacy", "name": "Pharmaprix", "website": "https://www.pharmaprix.ca/en/store-locator/store/74", "website:en": "https://www.pharmaprix.ca/en/store-locator/store/74", "website:fr": "https://www.pharmaprix.ca/fr/store-locator/store/74"}}, {"type": "node", "id": 7411151301, "lat": 45.4417159, "lon": -73.6743359, "tags": {"amenity": "pharmacy", "brand": "Pharmaprix", "brand:wikidata": "Q1820137", "brand:wikipedia": "fr:Pharmaprix", "dispensing": "yes", "healthcare": "pharmacy", "name": "Pharmaprix", "website": "https://www.pharmaprix.ca/en/store-locator/store/36", "website:en": "https://www.pharmaprix.ca/en/store-locator/store/36", "website:fr": "https://www.pharmaprix.ca/fr/store-locator/store/36"}}, {"type": "node", "id": 7433945546, "lat": 45.5464099, "lon": -73.6659125, "tags": {"addr:city": "Montr\u00e9al", "addr:housenumber": "148", "addr:postcode": "H3L 1T4", "addr:province": "QC", "addr:street": "Rue Fleury Ouest", "amenity": "pharmacy", "brand": "Jean Coutu", "brand:wikidata": "Q3117457", "brand:wikipedia": "fr:Groupe Jean Coutu", "dispensing": "yes", "healthcare": "pharmacy", "name": "Jean Coutu", "opening_hours": "Mo-Fr 09:00-21:00, Sa-Su 09:00-18:00"}}, {"type": "node", "id": 7433945557, "lat": 45.5453807, "lon": -73.666497, "tags": {"addr:city": "Montr\u00e9al", "addr:housenumber": "204", "addr:postcode": "H3L 1T7", "addr:province": "QC", "addr:street": "Rue Fleury Ouest", "amenity": "pharmacy", "brand": "Proxim", "brand:wikidata": "Q3408523", "brand:wikipedia": "en:Proxim", "dispensing": "yes", "healthcare": "pharmacy", "name": "Proxim"}}, {"type": "node", "id": 7457684623, "lat": 45.5677232, "lon": -73.6540317, "tags": {"addr:city": "Montr\u00e9al", "addr:housenumber": "1775", "addr:postcode": "H2C 1T3", "addr:street": "Rue Fleury Est", "amenity": "pharmacy", "brand": "Pharmaprix", "brand:wikidata": "Q1820137", "brand:wikipedia": "fr:Pharmaprix", "healthcare": "pharmacy", "name": "Pharmaprix", "opening_hours": "Mo-Su 9:00-22:00", "operator": "Pharmaprix", "phone": "+1-514-388-5779", "website": "https://www.pharmaprix.ca/en/store-locator/store/10", "website:en": "https://www.pharmaprix.ca/en/store-locator/store/10", "website:fr": "https://www.pharmaprix.ca/fr/store-locator/store/10"}}, {"type": "node", "id": 7470544183, "lat": 45.5647903, "lon": -73.6095961, "tags": {"amenity": "pharmacy", "brand": "Pharmaprix", "brand:wikidata": "Q1820137", "brand:wikipedia": "fr:Pharmaprix", "dispensing": "yes", "healthcare": "pharmacy", "name": "Pharmaprix", "website": "https://www.pharmaprix.ca/en/store-locator/store/1819", "website:en": "https://www.pharmaprix.ca/en/store-locator/store/1819", "website:fr": "https://www.pharmaprix.ca/fr/store-locator/store/1819"}}, {"type": "node", "id": 7514272962, "lat": 45.6231842, "lon": -73.6231652, "tags": {"amenity": "pharmacy", "brand": "Jean Coutu", "brand:wikidata": "Q3117457", "brand:wikipedia": "fr:Groupe Jean Coutu", "dispensing": "yes", "healthcare": "pharmacy", "name": "Jean Coutu"}}, {"type": "node", "id": 7561053649, "lat": 45.5154819, "lon": -73.7190125, "tags": {"amenity": "pharmacy", "brand": "Proxim", "brand:wikidata": "Q3408523", "dispensing": "yes", "healthcare": "pharmacy", "name": "Proxim"}}, {"type": "node", "id": 7903125602, "lat": 45.5661174, "lon": -73.5762041, "tags": {"amenity": "pharmacy", "brand": "Jean Coutu", "brand:wikidata": "Q3117457", "brand:wikipedia": "fr:Groupe Jean Coutu", "check_date:opening_hours": "2023-08-16", "dispensing": "yes", "healthcare": "pharmacy", "name": "Jean Coutu", "opening_hours": "Sa,Su 09:00-18:00; Mo-Fr 09:00-20:00"}}, {"type": "node", "id": 8032756275, "lat": 45.5285663, "lon": -73.6230897, "tags": {"amenity": "pharmacy", "automatic_door": "yes", "dispensing": "yes", "entrance": "yes", "healthcare": "pharmacy", "name": "Proxim pharmacie", "wheelchair": "yes"}}, {"type": "node", "id": 8256238489, "lat": 45.5207062, "lon": -73.6738233, "tags": {"amenity": "pharmacy", "brand": "Jean Coutu", "brand:wikidata": "Q3117457", "brand:wikipedia": "fr:Groupe Jean Coutu", "dispensing": "yes", "healthcare": "pharmacy", "name": "Jean Coutu"}}, {"type": "node", "id": 8353776216, "lat": 45.5026791, "lon": -73.6358148, "tags": {"addr:housenumber": "6603", "addr:postcode": "H3S 2B3", "addr:street": "Chemin de la C\u00f4te-des-Neiges", "amenity": "pharmacy", "brand": "Proxim", "brand:wikidata": "Q3408523", "brand:wikipedia": "en:Proxim", "dispensing": "yes", "drive_through": "no", "healthcare": "pharmacy", "name": "Proxim"}}, {"type": "node", "id": 8399920860, "lat": 45.5727823, "lon": -73.5482976}, {"type": "node", "id": 8399920862, "lat": 45.5729269, "lon": -73.5487459}, {"type": "node", "id": 8400032202, "lat": 45.5765493, "lon": -73.547282}, {"type": "node", "id": 8400032203, "lat": 45.5764984, "lon": -73.5475266}, {"type": "node", "id": 8400032204, "lat": 45.5764157, "lon": -73.547274}, {"type": "node", "id": 8400032205, "lat": 45.5765955, "lon": -73.5474618}, {"type": "node", "id": 8400032206, "lat": 45.5765715, "lon": -73.5473885}, {"type": "node", "id": 8400032207, "lat": 45.5765819, "lon": -73.5473815}, {"type": "node", "id": 8419650038, "lat": 45.5385718, "lon": -73.6059604, "tags": {"addr:housenumber": "937", "addr:postcode": "H2S1M9", "addr:street": "Rue Saint-Zotique Est", "amenity": "pharmacy", "brand": "Uniprix", "brand:wikidata": "Q683265", "brand:wikipedia": "fr:Uniprix (pharmacies)", "dispensing": "yes", "healthcare": "pharmacy", "name": "Pharmacie Sarah Fizazi", "opening_hours": "Mo-Fr 09:00-19:00; Sa 10:00-16:00", "operator": "Sarah Fizazi", "phone": "+1 514-370-2626", "website": "https://www.uniprix.com/fr/succursales/fizazi-sarah-montreal"}}, {"type": "node", "id": 8558116797, "lat": 45.5284499, "lon": -73.6698073, "tags": {"addr:city": "Montr\u00e9al", "addr:housenumber": "237 Blvd", "addr:postcode": "H4N 1C0", "addr:province": "Quebec", "addr:street": "Boulevard de la C\u00f4te-Vertu", "amenity": "pharmacy", "brand": "Jean Coutu", "brand:wikidata": "Q3117457", "brand:wikipedia": "fr:Groupe Jean Coutu", "dispensing": "yes", "drive_through": "no", "healthcare": "pharmacy", "name": "Jean Coutu", "opening_hours": "Mo-Su 09:00-21:00", "operator": "Nelly Kanou et Tania Kanou"}}, {"type": "node", "id": 8766680019, "lat": 45.5235038, "lon": -73.5513454, "tags": {"addr:city": "Montr\u00e9al", "addr:housenumber": "1900", "addr:postcode": "H2K 2H5", "addr:province": "QC", "addr:street": "Rue Sainte-Catherine Est;Sainte-Catherine E.", "amenity": "pharmacy", "brand": "Proxim", "brand:wikidata": "Q3408523", "dispensing": "yes", "drive_through": "no", "healthcare": "pharmacy", "name": "Proxim", "operator": "Proxim", "wheelchair": "yes"}}, {"type": "node", "id": 8934436340, "lat": 45.4999705, "lon": -73.6298509, "tags": {"addr:city": "Montr\u00e9al", "addr:housenumber": "5843", "addr:postcode": "H3S 1Z2", "addr:street": "Chemin de la C\u00f4te-des-Neiges", "amenity": "pharmacy", "brand": "Uniprix", "brand:wikidata": "Q683265", "brand:wikipedia": "fr:Uniprix (pharmacies)", "dispensing": "yes", "healthcare": "pharmacy", "name": "Pharmacy M. Bui"}}, {"type": "node", "id": 9026396465, "lat": 45.6165997, "lon": -73.6287971, "tags": {"addr:housenumber": "5850", "addr:street": "boulevard L\u00e9ger", "amenity": "pharmacy", "brand": "Uniprix", "brand:wikidata": "Q683265", "brand:wikipedia": "fr:Uniprix (pharmacies)", "healthcare": "pharmacy", "name": "Uniprix", "opening_hours": "Mo-Fr 09:00-20:00; Sa, Su 09:00-17:00", "phone": "+1 514 324-4520", "website": "https://www.uniprix.com/fr/succursales/cyr-marie-claude-montreal"}}, {"type": "node", "id": 9106470137, "lat": 45.5111828, "lon": -73.6147586, "tags": {"addr:city": "Outremont", "addr:housenumber": "7", "addr:postcode": "H2V 4N7", "addr:province": "Qu\u00e9bec", "addr:street": "Avenue Vincent-D'Indy", "amenity": "pharmacy", "brand": "Familiprix", "brand:wikidata": "Q3064881", "brand:wikipedia": "fr:Familiprix", "dispensing": "yes", "healthcare": "pharmacy", "name": "Familiprix"}}, {"type": "node", "id": 9161536039, "lat": 45.4983028, "lon": -73.6271587, "tags": {"amenity": "pharmacy", "brand": "Familiprix", "brand:wikidata": "Q3064881", "dispensing": "yes", "drive_through": "no", "healthcare": "pharmacy", "name": "Familiprix"}}, {"type": "node", "id": 9233817917, "lat": 45.4913611, "lon": -73.6312963, "tags": {"addr:city": "Montr\u00e9al", "addr:housenumber": "5480", "addr:postcode": "H3W 2P8", "addr:province": "Qu\u00e9bec", "addr:street": "Avenue Victoria", "amenity": "pharmacy", "branch": "Clinique", "brand": "Familiprix", "brand:wikidata": "Q3064881", "brand:wikipedia": "fr:Familiprix", "dispensing": "yes", "healthcare": "pharmacy", "name": "Familiprix"}}, {"type": "node", "id": 9233878874, "lat": 45.4934151, "lon": -73.6350889, "tags": {"addr:city": "Montr\u00e9al", "addr:housenumber": "5881", "addr:postcode": "H3W 2R6", "addr:province": "Qu\u00e9bec", "addr:street": "Avenue Victoria", "amenity": "pharmacy", "dispensing": "yes", "healthcare": "pharmacy", "name": "Proximed"}}, {"type": "node", "id": 9247558024, "lat": 45.4856621, "lon": -73.6328349, "tags": {"addr:city": "Montr\u00e9al", "addr:housenumber": "5333", "addr:postcode": "H3W 3C4", "addr:province": "Qu\u00e9bec", "addr:street": "Boulevard D\u00e9carie", "amenity": "pharmacy", "healthcare": "pharmacy", "name": "Pharmacit\u00e9 Weinbaum"}}, {"type": "node", "id": 9249278407, "lat": 45.4956911, "lon": -73.6410337, "tags": {"addr:city": "Montr\u00e9al", "addr:housenumber": "6520", "addr:postcode": "H3W 3G4", "addr:province": "Qu\u00e9bec", "addr:street": "Avenue Victoria", "amenity": "pharmacy", "dispensing": "yes", "healthcare": "pharmacy"}}, {"type": "node", "id": 9356044191, "lat": 45.5462028, "lon": -73.5520637, "tags": {"addr:city": "Montr\u00e9al", "addr:housenumber": "3495", "addr:postcode": "H1W 1H6", "addr:province": "Qu\u00e9bec", "addr:street": "Rue Hochelaga", "amenity": "pharmacy", "brand": "Familiprix", "brand:wikidata": "Q3064881", "brand:wikipedia": "fr:Familiprix", "contact:phone": "+1-514-524-3613", "dispensing": "yes", "drive_through": "no", "healthcare": "pharmacy", "name": "Familiprix", "opening_hours": "Mo-Fr 09:00-19:00; Sa,Su 10:00-17:00", "operator": "Jean-Maurice Weibel", "website": "https://www.familiprix.com/fr/pharmacies/jean-maurice-weibel-0bd89ee5-e8ee-44c0-8721-73f67d2caa9b?section=lab"}}, {"type": "node", "id": 9362845930, "lat": 45.5474837, "lon": -73.6182602, "tags": {"addr:city": "Montr\u00e9al", "addr:housenumber": "1275", "addr:province": "QC", "addr:street": "Rue Villeray", "amenity": "pharmacy", "brand": "Uniprix", "brand:wikidata": "Q683265", "brand:wikipedia": "fr:Uniprix (pharmacies)", "dispensing": "yes", "healthcare": "pharmacy", "name": "Uniprix", "opening_hours": "Mo-Fr 09:00-20:00; Sa,Su 09:00-18:00"}}, {"type": "node", "id": 9405435004, "lat": 45.5463916, "lon": -73.6086705, "tags": {"addr:city": "Montr\u00e9al", "addr:housenumber": "1465", "addr:province": "QC", "addr:street": "Rue Jean-Talon Est", "amenity": "pharmacy", "brand": "Jean Coutu", "brand:wikidata": "Q3117457", "brand:wikipedia": "fr:Groupe Jean Coutu", "dispensing": "yes", "healthcare": "pharmacy", "name": "Jean Coutu"}}, {"type": "node", "id": 9423489271, "lat": 45.5036047, "lon": -73.5714294}, {"type": "node", "id": 9423489272, "lat": 45.5037794, "lon": -73.5712538}, {"type": "node", "id": 9423489274, "lat": 45.5037337, "lon": -73.5716906}, {"type": "node", "id": 9432395084, "lat": 45.54854, "lon": -73.6335998, "tags": {"addr:city": "Montr\u00e9al", "addr:housenumber": "8560", "addr:postcode": "H2P 1Z7", "addr:province": "QC", "addr:street": "Rue Saint-Hubert", "addr:unit": "110", "amenity": "pharmacy", "dispensing": "yes", "drive_through": "no", "email": "info@pharmacievilleray.ca", "fax": "+1-514-598-6277", "healthcare": "pharmacy", "level": "0", "name": "Pharmacie Am\u00e9lie Bouffard", "opening_hours": "Mo-Fr 09:00-19:00; Sa, Su 09:00-16:00", "operator": "Groupe Horizon Sant\u00e9", "phone": "+1-514-598-6276", "website": "https://horizonsante.ca/pharmacie-villeray/", "wheelchair": "yes"}}, {"type": "node", "id": 9532280409, "lat": 45.5328085, "lon": -73.6797873, "tags": {"addr:city": "Montr\u00e9al", "addr:housenumber": "10570", "addr:province": "QC", "addr:street": "Place de l'Acadie", "amenity": "pharmacy", "brand": "Uniprix", "brand:wikidata": "Q683265", "brand:wikipedia": "fr:Uniprix (pharmacies)", "dispensing": "yes", "healthcare": "pharmacy", "name": "Uniprix Clinique", "operator": "Abel-Claude Arslanian"}}, {"type": "node", "id": 9533729842, "lat": 45.5520157, "lon": -73.615959, "tags": {"addr:city": "Montr\u00e9al", "addr:housenumber": "7895", "addr:province": "QC", "addr:street": "Avenue Papineau", "amenity": "pharmacy", "brand": "Familiprix", "brand:wikidata": "Q3064881", "brand:wikipedia": "fr:Familiprix", "dispensing": "yes", "healthcare": "pharmacy", "name": "Familiprix"}}, {"type": "node", "id": 9592851356, "lat": 45.5555787, "lon": -73.6699768, "tags": {"addr:city": "Montr\u00e9al", "addr:housenumber": "10794", "addr:province": "QC", "addr:street": "Rue Lajeunesse", "amenity": "pharmacy", "dispensing": "yes", "healthcare": "pharmacy", "name": "Pharmacie Gaby Jeanty"}}, {"type": "node", "id": 9626845237, "lat": 45.4532424, "lon": -73.5945061}, {"type": "node", "id": 9657280878, "lat": 45.4948672, "lon": -73.6196006, "tags": {"addr:city": "Montr\u00e9al", "addr:housenumber": "5122", "addr:postcode": "H3T 1X8", "addr:province": "Qu\u00e9bec", "addr:street": "Chemin de la C\u00f4te-des-Neiges", "amenity": "pharmacy", "brand": "Pharmaprix", "brand:wikidata": "Q1820137", "brand:wikipedia": "fr:Pharmaprix", "dispensing": "yes", "drive_through": "no", "healthcare": "pharmacy", "name": "Pharmaprix", "name:fr": "Pharmaprix", "opening_hours": "24/7", "operator": "Loblaw Companies Limited", "website": "https://www.pharmaprix.ca/en/store-locator/store/66", "website:en": "https://www.pharmaprix.ca/en/store-locator/store/66", "website:fr": "https://www.pharmaprix.ca/fr/store-locator/store/66"}}, {"type": "node", "id": 9660865165, "lat": 45.4533221, "lon": -73.5936142}, {"type": "node", "id": 9660865166, "lat": 45.4533139, "lon": -73.593662}, {"type": "node", "id": 9660865167, "lat": 45.4533055, "lon": -73.5936596}, {"type": "node", "id": 9783968175, "lat": 45.4570918, "lon": -73.5881037}, {"type": "node", "id": 9783968176, "lat": 45.4570301, "lon": -73.5881098}, {"type": "node", "id": 9783968177, "lat": 45.4570292, "lon": -73.588091}, {"type": "node", "id": 9783968178, "lat": 45.4570909, "lon": -73.5880855}, {"type": "node", "id": 9784007471, "lat": 45.4570949, "lon": -73.5881035}, {"type": "node", "id": 9784007472, "lat": 45.4570252, "lon": -73.5881104}, {"type": "node", "id": 9815563441, "lat": 45.5929053, "lon": -73.5921807, "tags": {"amenity": "pharmacy", "brand": "Uniprix", "brand:wikidata": "Q683265", "dispensing": "yes", "healthcare": "pharmacy", "name": "Uniprix"}}, {"type": "node", "id": 9863068597, "lat": 45.5525314, "lon": -73.5724859, "tags": {"addr:city": "Montr\u00e9al", "addr:housenumber": "3425", "addr:postcode": "H1X 1R6", "addr:province": "QC", "addr:street": "Rue Masson", "addr:unit": "100", "amenity": "pharmacy", "brand": "Pharmaprix", "brand:wikidata": "Q1820137", "check_date:opening_hours": "2023-07-14", "dispensing": "yes", "drive_through": "no", "healthcare": "pharmacy", "level": "1", "name": "Pharmaprix", "opening_hours": "Mo-Fr 08:00-20:00, Sa-Su 09:00-20:00", "phone": "+1-514-725-6446", "website": "https://www.pharmaprix.ca/en/store-locator/store/73", "website:en": "https://www.pharmaprix.ca/en/store-locator/store/73", "website:fr": "https://www.pharmaprix.ca/fr/store-locator/store/73", "wheelchair": "yes"}}, {"type": "node", "id": 9906615239, "lat": 45.5366532, "lon": -73.6117963}, {"type": "node", "id": 9941448970, "lat": 45.5008904, "lon": -73.6465755, "tags": {"addr:city": "Montr\u00e9al", "addr:housenumber": "4177", "addr:postcode": "H4P 1W6", "addr:province": "QC", "addr:street": "Rue Jean-Talon Ouest", "amenity": "pharmacy", "dispensing": "yes", "drive_through": "no", "healthcare": "pharmacy", "name": "Pharmacie Berge Shater", "name:en": "Berge Shater Pharmacy", "name:fr": "Pharmacie Berge Shater", "opening_hours": "Mo-Fr 08:30-19:30; Sa 09:00-16:00; Su off", "operator": "Berge Shater", "payment:cash": "yes", "payment:credit_cards": "yes", "payment:debit_cards": "yes", "website": "https://pharmaciemtl.com/"}}, {"type": "node", "id": 9951891704, "lat": 45.4971095, "lon": -73.650007, "tags": {"addr:city": "Montr\u00e9al", "addr:housenumber": "4973", "addr:province": "QC", "addr:street": "Rue Jean-Talon Ouest", "amenity": "pharmacy", "dispensing": "yes", "healthcare": "pharmacy"}}, {"type": "node", "id": 9977404551, "lat": 45.4294504, "lon": -73.6346285, "tags": {"addr:city": "Lasalle", "addr:postcode": "H8R1Y8", "addr:province": "QC", "addr:street": "Avenue Dollard", "amenity": "pharmacy", "brand": "Jean Coutu", "brand:wikidata": "Q3117457", "dispensing": "yes", "healthcare": "pharmacy", "name": "Jean Coutu"}}, {"type": "node", "id": 9980086202, "lat": 45.4229581, "lon": -73.6423021, "tags": {"addr:city": "Lasalle", "addr:province": "QC", "addr:street": "Rue Airlie", "amenity": "pharmacy", "brand": "Familiprix", "brand:wikidata": "Q3064881", "brand:wikipedia": "fr:Familiprix", "dispensing": "yes", "healthcare": "pharmacy", "name": "Familiprix"}}, {"type": "node", "id": 10054968232, "lat": 45.4337812, "lon": -73.62784, "tags": {"amenity": "pharmacy", "brand": "Proxim", "brand:wikidata": "Q3408523", "dispensing": "yes", "healthcare": "pharmacy", "name": "Proxim"}}, {"type": "node", "id": 10089749542, "lat": 45.4217646, "lon": -73.642371}, {"type": "node", "id": 10089749545, "lat": 45.421842, "lon": -73.6423335}, {"type": "node", "id": 10089749546, "lat": 45.4218971, "lon": -73.6425644}, {"type": "node", "id": 10089749547, "lat": 45.4218777, "lon": -73.6425738}, {"type": "node", "id": 10089749548, "lat": 45.421881, "lon": -73.6425878}, {"type": "node", "id": 10089749549, "lat": 45.4218379, "lon": -73.6426087}, {"type": "node", "id": 10103796037, "lat": 45.4218344, "lon": -73.642594}, {"type": "node", "id": 10103796038, "lat": 45.4218195, "lon": -73.6426012}, {"type": "node", "id": 10117179086, "lat": 45.5216052, "lon": -73.6012926, "tags": {"amenity": "pharmacy", "dispensing": "yes", "healthcare": "pharmacy", "name": "La Parapharmacie"}}, {"type": "node", "id": 10652221173, "lat": 45.5823892, "lon": -73.5427363, "tags": {"amenity": "pharmacy", "brand": "Familiprix", "brand:wikidata": "Q3064881", "dispensing": "yes", "healthcare": "pharmacy", "level": "0", "name": "Familiprix", "wheelchair": "yes"}}, {"type": "node", "id": 10792748007, "lat": 45.499614, "lon": -73.7061754, "tags": {"amenity": "pharmacy", "brand": "Uniprix", "brand:wikidata": "Q683265", "brand:wikipedia": "fr:Uniprix (pharmacies)", "dispensing": "yes", "healthcare": "pharmacy", "name": "Uniprix"}}, {"type": "node", "id": 10801566969, "lat": 45.4719923, "lon": -73.6047534, "tags": {"addr:city": "Montr\u00e9al", "addr:housenumber": "5325", "addr:province": "QC", "addr:street": "Avenue Crowley", "amenity": "pharmacy", "brand": "Familiprix", "brand:wikidata": "Q3064881", "brand:wikipedia": "fr:Familiprix", "dispensing": "yes", "healthcare": "pharmacy", "name": "Familiprix", "operator": "Cam Uyen Mai Ba"}}, {"type": "node", "id": 10801652900, "lat": 45.4724154, "lon": -73.6019451, "tags": {"addr:city": "Montr\u00e9al", "addr:housenumber": "1001", "addr:postcode": "H4A 3J1", "addr:province": "QC", "addr:street": "Boulevard D\u00e9carie", "amenity": "pharmacy", "dispensing": "yes", "healthcare": "pharmacy", "name": "Pharmacie Daniel Abikhzer - Pharma Glen"}}, {"type": "node", "id": 10889948529, "lat": 45.5730192, "lon": -73.5482074}, {"type": "node", "id": 10889948530, "lat": 45.5730397, "lon": -73.5482685}, {"type": "node", "id": 10889948531, "lat": 45.5730765, "lon": -73.5482428}, {"type": "node", "id": 10889948532, "lat": 45.5730559, "lon": -73.5481841}, {"type": "node", "id": 10897771353, "lat": 45.5461793, "lon": -73.6035094, "tags": {"addr:housenumber": "6940", "addr:street": "Avenue Papineau", "amenity": "pharmacy", "brand": "Jean Coutu", "brand:website": "https://www.jeancoutu.com/", "brand:wikidata": "Q3117457", "brand:wikipedia": "fr:Groupe Jean Coutu", "healthcare": "pharmacy", "name": "Pharmacie Jean-Coutu", "opening_hours": "Mo-Su 09:00-21:00", "website": "https://www.jeancoutu.com/en/store-locator/montreal-6940-papineau-ave-h2g-2x7/243/"}}, {"type": "node", "id": 10917000032, "lat": 45.5744702, "lon": -73.5851765, "tags": {"addr:city": "Montr\u00e9al", "addr:housenumber": "4873", "addr:province": "QC", "addr:street": "Rue Jean-Talon Est", "amenity": "pharmacy", "brand": "Uniprix", "brand:wikidata": "Q683265", "brand:wikipedia": "fr:Uniprix (pharmacies)", "dispensing": "yes", "healthcare": "pharmacy", "name": "Uniprix"}}, {"type": "node", "id": 11016237894, "lat": 45.539097, "lon": -73.6314915}, {"type": "node", "id": 11061953511, "lat": 45.5460362, "lon": -73.5943739, "tags": {"addr:housenumber": "2155", "addr:street": "Beaubien E.", "amenity": "pharmacy", "branch": "Gravel", "brand": "Uniprix", "brand:wikidata": "Q683265", "healthcare": "pharmacy", "name": "Uniprix"}}, {"type": "node", "id": 11108904487, "lat": 45.5304159, "lon": -73.5553074, "tags": {"amenity": "pharmacy", "brand": "Proxim", "brand:wikidata": "Q3408523", "healthcare": "pharmacy", "name": "Proxim"}}, {"type": "node", "id": 11112939625, "lat": 45.5079796, "lon": -73.5592144, "tags": {"amenity": "pharmacy", "healthcare": "pharmacy"}}, {"type": "node", "id": 11121715564, "lat": 45.5053483, "lon": -73.5581275, "tags": {"amenity": "pharmacy", "brand": "Familiprix", "brand:wikidata": "Q3064881", "healthcare": "pharmacy", "name": "Familiprix"}}, {"type": "node", "id": 11128849805, "lat": 45.5932245, "lon": -73.5111701, "tags": {"amenity": "pharmacy", "name": "Uniprix"}}, {"type": "node", "id": 11139887018, "lat": 45.4994943, "lon": -73.5731881, "tags": {"amenity": "pharmacy", "brand": "Pharmaprix", "brand:wikidata": "Q1820137", "healthcare": "pharmacy", "name": "Pharmaprix", "website": "https://www.pharmaprix.ca/en/store-locator/store/1937", "website:en": "https://www.pharmaprix.ca/en/store-locator/store/1937", "website:fr": "https://www.pharmaprix.ca/fr/store-locator/store/1937"}}, {"type": "node", "id": 11167420085, "lat": 45.5837987, "lon": -73.6048003}, {"type": "node", "id": 11167420086, "lat": 45.584073, "lon": -73.6045524}, {"type": "node", "id": 11167420087, "lat": 45.5841957, "lon": -73.6048295}, {"type": "node", "id": 11167420088, "lat": 45.5841361, "lon": -73.6048833}, {"type": "node", "id": 11167420089, "lat": 45.584061, "lon": -73.6050093}, {"type": "node", "id": 11167420090, "lat": 45.5839398, "lon": -73.6051189}, {"type": "node", "id": 11173243513, "lat": 45.5818841, "lon": -73.602617}, {"type": "node", "id": 11173243514, "lat": 45.581902, "lon": -73.6024053}, {"type": "node", "id": 11182085033, "lat": 45.5412534, "lon": -73.6386547, "tags": {"amenity": "pharmacy", "healthcare": "pharmacy"}}, {"type": "node", "id": 11203870248, "lat": 45.5672454, "lon": -73.5855563, "tags": {"amenity": "pharmacy", "brand": "Uniprix", "brand:wikidata": "Q683265", "healthcare": "pharmacy", "name": "Uniprix"}}, {"type": "node", "id": 11203934348, "lat": 45.577924, "lon": -73.5757989, "tags": {"amenity": "pharmacy", "brand": "Uniprix", "brand:wikidata": "Q683265", "healthcare": "pharmacy", "name": "Uniprix"}}, {"type": "node", "id": 11210352161, "lat": 45.5719318, "lon": -73.5400972, "tags": {"addr:housenumber": "2680", "addr:street": "Rue Lacordaire", "amenity": "pharmacy", "brand": "Proxim", "brand:wikidata": "Q3408523", "contact:fax": "514 259 9327", "contact:phone": "514 259 4648", "contact:website": "https://www.groupeproxim.ca/en/quebec/montreal/tran-leung-7032300", "dispensing": "yes", "healthcare": "pharmacy", "name": "Proxim", "operator": "Ly Thanh Tran & Adam Leung inc."}}, {"type": "node", "id": 11280263310, "lat": 45.5181197, "lon": -73.5581938, "tags": {"amenity": "pharmacy", "brand": "Proxim", "brand:wikidata": "Q3408523", "healthcare": "pharmacy", "name": "Proxim"}}, {"type": "node", "id": 11281985022, "lat": 45.5064121, "lon": -73.5600948, "tags": {"amenity": "pharmacy", "brand": "Proxim", "brand:wikidata": "Q3408523", "healthcare": "pharmacy", "name": "Proxim"}}, {"type": "node", "id": 11294512983, "lat": 45.5816851, "lon": -73.6023691}, {"type": "node", "id": 11294512984, "lat": 45.5816698, "lon": -73.6025826}, {"type": "node", "id": 11365440068, "lat": 45.5811321, "lon": -73.6109287, "tags": {"addr:housenumber": "8770", "addr:postcode": "H1R 3N7", "addr:street": "Boulevard Provencher", "amenity": "pharmacy", "brand": "Familiprix", "brand:wikidata": "Q3064881", "healthcare": "pharmacy", "name": "Familiprix", "opening_hours": "Mo-Fr 09:00-20:00; Sa 09:00-17:00; Su 10:00-17:00", "phone": "+1-514-727-3759", "website": "https://www.familiprix.com/fr/pharmacies/ricardo-remy-mohamed-ghersi-xin-wei-xue-et-francois-grondin-17f64acf-6b71-4599-a6d6-f7f2b5f9f372"}}, {"type": "node", "id": 11371408412, "lat": 45.4528089, "lon": -73.5768102, "tags": {"addr:housenumber": "5443", "addr:street": "Rue Bannantyne", "amenity": "pharmacy", "brand": "Uniprix", "brand:wikidata": "Q683265", "check_date": "2023-11-23", "healthcare": "pharmacy", "name": "Uniprix"}}, {"type": "node", "id": 11403077676, "lat": 45.443201, "lon": -73.6171299, "tags": {"addr:city": "Lasalle", "addr:housenumber": "7201", "addr:postcode": "h8n2k3", "addr:province": "Qu\u00e9bec", "addr:street": "Boulevard Newman", "amenity": "pharmacy", "dispensing": "yes", "drive_through": "no", "healthcare": "pharmacy", "name": "Pharmacie Myriame Ngo & Kenneth Chan", "opening_hours": "Mo-Fr 09:00-19:00, Sa 09:00-17:00, Su 10:00-16:00", "operator": "Independent - Affili\u00e9e au Groupe Horizon Sant\u00e9"}}, {"type": "node", "id": 11438337028, "lat": 45.4265745, "lon": -73.6108367, "tags": {"amenity": "pharmacy", "brand": "Pharmaprix", "brand:wikidata": "Q1820137", "healthcare": "pharmacy", "name": "Pharmaprix", "website": "https://www.pharmaprix.ca/en/store-locator/store/54", "website:en": "https://www.pharmaprix.ca/en/store-locator/store/54", "website:fr": "https://www.pharmaprix.ca/fr/store-locator/store/54"}}, {"type": "node", "id": 11439809830, "lat": 45.4250109, "lon": -73.6130982, "tags": {"amenity": "pharmacy", "brand": "Jean Coutu", "brand:wikidata": "Q3117457", "dispensing": "yes", "healthcare": "pharmacy", "name": "Jean Coutu"}}, {"type": "node", "id": 11479316100, "lat": 45.56368, "lon": -73.5786094}, {"type": "node", "id": 11479316101, "lat": 45.5635575, "lon": -73.5787174}, {"type": "node", "id": 11479316102, "lat": 45.5634655, "lon": -73.5784333}, {"type": "node", "id": 11479316103, "lat": 45.5635999, "lon": -73.57835}, {"type": "node", "id": 11607194085, "lat": 45.582781, "lon": -73.57308}, {"type": "node", "id": 11607194086, "lat": 45.5826981, "lon": -73.5728337}, {"type": "node", "id": 11607194087, "lat": 45.5823214, "lon": -73.5730925}, {"type": "node", "id": 11607194088, "lat": 45.5824042, "lon": -73.5733387}, {"type": "node", "id": 11653413490, "lat": 45.5778283, "lon": -73.5966779, "tags": {"addr:housenumber": "4720", "addr:postcode": "H1R 1X8", "addr:street": "Rue Jarry Est", "amenity": "pharmacy", "brand": "Pharmaprix", "brand:wikidata": "Q1820137", "email": "fphx1968@pharmaprix.ca", "healthcare": "pharmacy", "name": "Pharmaprix", "opening_hours": "Mo-Su 8:00-21:00", "phone": "+1-514-725-1414", "website": "https://www.pharmaprix.ca/fr/store-locator/store/1968", "website:en": "https://www.pharmaprix.ca/en/store-locator/store/1968", "website:fr": "https://www.pharmaprix.ca/fr/store-locator/store/1968"}}, {"type": "node", "id": 11660363797, "lat": 45.6005752, "lon": -73.5958053, "tags": {"addr:housenumber": "8842", "addr:postcode": "H1P 3C8", "addr:street": "Boulevard Langelier", "amenity": "pharmacy", "brand": "Jean Coutu", "brand:wikidata": "Q3117457", "healthcare": "pharmacy", "name": "Jean Coutu", "phone": "+1-514-326-3503", "website": "https://www.jeancoutu.com/localisateur-succursale/saint-leonard-8842-boulevard-langelier-h1p-3c8/152/"}}, {"type": "node", "id": 11711827867, "lat": 45.5765386, "lon": -73.5472892}, {"type": "node", "id": 11711827868, "lat": 45.5765587, "lon": -73.5472354}, {"type": "node", "id": 11711850069, "lat": 45.5765278, "lon": -73.5472561}, {"type": "node", "id": 11711850070, "lat": 45.5766095, "lon": -73.5471444}, {"type": "node", "id": 11711850071, "lat": 45.5766725, "lon": -73.5473367}, {"type": "node", "id": 11711850072, "lat": 45.5766063, "lon": -73.5473809}, {"type": "node", "id": 11738076960, "lat": 45.5513359, "lon": -73.5896972, "tags": {"addr:housenumber": "2659", "addr:street": "Rue Beaubien Est", "amenity": "pharmacy", "healthcare": "pharmacy", "name": "Pharmacie Dinh Hieu Luu", "phone": "+1-514-723-0722"}}, {"type": "node", "id": 11747018533, "lat": 45.5809314, "lon": -73.5436985, "tags": {"amenity": "pharmacy", "name": "Jean-Coutu"}}, {"type": "node", "id": 11834045645, "lat": 45.5536486, "lon": -73.6017895, "tags": {"addr:housenumber": "2500", "addr:street": "Rue Jean-Talon Est", "amenity": "pharmacy", "brand": "Familiprix", "brand:wikidata": "Q3064881", "healthcare": "pharmacy", "name": "Familiprix"}}, {"type": "node", "id": 11845487291, "lat": 45.4623937, "lon": -73.8681386, "tags": {"amenity": "pharmacy", "brand": "Jean Coutu", "brand:wikidata": "Q3117457", "healthcare": "pharmacy", "name": "Jean Coutu"}}, {"type": "node", "id": 11889936177, "lat": 45.4670437, "lon": -73.8748732, "tags": {"amenity": "pharmacy", "brand": "Uniprix", "brand:wikidata": "Q683265", "healthcare": "pharmacy", "name": "Uniprix"}}, {"type": "way", "id": 46844576, "nodes": [8399920860, 8399920862, 598277456, 10889948530, 10889948531, 10889948532, 10889948529, 598277455, 8399920860], "tags": {"addr:city": "Montr\u00e9al", "addr:housenumber": "5696", "addr:postcode": "H1N 1A1", "addr:street": "Rue Sherbrooke Est", "amenity": "pharmacy", "brand": "Pharmaprix", "brand:wikidata": "Q1820137", "brand:wikipedia": "fr:Pharmaprix", "building": "yes", "building:levels": "1", "healthcare": "pharmacy", "name": "Pharmaprix", "website": "https://www.pharmaprix.ca/en/store-locator/store/83", "website:en": "https://www.pharmaprix.ca/en/store-locator/store/83", "website:fr": "https://www.pharmaprix.ca/fr/store-locator/store/83", "wheelchair": "yes"}}, {"type": "way", "id": 220548556, "nodes": [2296591511, 2296591512, 2296591513, 11016237894, 2296591514, 2296591511], "tags": {"addr:city": "Montr\u00e9al", "addr:housenumber": "8125", "addr:province": "QC", "addr:street": "Boulevard Saint-Laurent", "amenity": "pharmacy", "brand": "Pharmaprix", "brand:wikidata": "Q1820137", "building": "yes", "healthcare": "pharmacy", "name": "Pharmaprix", "name:en": "Pharmaprix", "opening_hours": "Mo-Su 08:00-22:00", "website": "https://www.pharmaprix.ca/en/store-locator/store/1875", "website:en": "https://www.pharmaprix.ca/en/store-locator/store/1875", "website:fr": "https://www.pharmaprix.ca/fr/store-locator/store/1875"}}, {"type": "way", "id": 220549011, "nodes": [2296595515, 2296595516, 9906615239, 2296595517, 2296595518, 2296595515], "tags": {"amenity": "pharmacy", "building": "yes", "healthcare": "pharmacy"}}, {"type": "way", "id": 235903361, "nodes": [2439865438, 2439865441, 2439865443, 2439865445, 2439865447, 3622978531, 2439865449, 2439865438], "tags": {"addr:street": "Rue Laurier", "amenity": "pharmacy", "building": "yes", "check_date": "2022-12-30", "healthcare": "pharmacy", "name": "Pharmacie Jean-Coutu", "opening_hours": "Mo-Sa 09:00-21:00, Su 10:00-21:00", "payment:credit_cards": "yes", "payment:debit_cards": "yes", "wheelchair": "no"}}, {"type": "way", "id": 242894502, "nodes": [2503389306, 2503389302, 2503389300, 2503389301, 2503389304, 2503389306], "tags": {"addr:city": "Montr\u00e9al", "addr:housenumber": "4484", "addr:postcode": "H1V 1Y5", "addr:province": "Qu\u00e9bec", "addr:street": "Rue Sainte-Catherine Est", "amenity": "pharmacy", "brand": "Jean Coutu", "brand:wikidata": "Q3117457", "brand:wikipedia": "fr:Groupe Jean Coutu", "building": "yes", "dispensing": "yes", "drive_through": "no", "healthcare": "pharmacy", "level": "0", "name": "Jean Coutu", "opening_hours": "Mo-Fr 09:00-20:00; Sa,Su 09:00-18:00", "operator": "Isabelle Joyal et Nola Ren\u00e9-Henri", "payment:cash": "yes", "payment:credit_cards": "yes", "payment:debit_cards": "yes", "payment:mastercard": "yes", "payment:visa": "yes", "phone": "+1-514-255-4914", "source": "Bing 2012", "website": "https://www.jeancoutu.com/", "wheelchair": "yes"}}, {"type": "way", "id": 264389386, "nodes": [2700680912, 2700680913, 2700680916, 2700680918, 2700680912], "tags": {"amenity": "pharmacy", "drive_through": "no", "healthcare": "pharmacy", "name": "Pharmacie Jean-Coutu"}}, {"type": "way", "id": 287185971, "nodes": [2908220753, 2908220754, 3599946249, 3599946247, 2908220755, 2908220756, 3599913911, 2908220753], "tags": {"addr:city": "Montr\u00e9al", "addr:housenumber": "5692", "addr:postcode": "H2V 4H1", "addr:street": "Avenue du Parc", "amenity": "pharmacy", "brand": "Jean Coutu", "brand:wikidata": "Q3117457", "building": "commercial", "ele": "48.0", "healthcare": "pharmacy", "name": "Jean Coutu", "operator": "Jean-Coutu", "wheelchair": "yes"}}, {"type": "way", "id": 314358201, "nodes": [3204050742, 3204051874, 2151385734, 3204050735, 3204050736, 3204050734, 3204050739, 3204050742], "tags": {"addr:city": "Montr\u00e9al", "addr:housenumber": "6200", "addr:postcode": "H3S 2A1", "addr:province": "QC", "addr:street": "Chemin de la C\u00f4te-des-Neiges", "amenity": "pharmacy", "brand": "Jean Coutu Group", "brand:wikidata": "Q3117457", "brand:wikipedia": "fr:Groupe Jean Coutu", "building": "retail", "dispensing": "yes", "drive_through": "no", "healthcare": "pharmacy", "name": "Pharmacie Jean Coutu", "website": "https://www.jeancoutu.com/"}}, {"type": "way", "id": 362164910, "nodes": [3665254244, 3665254241, 3665254232, 3665254238, 3665254240, 3665254242, 3665254244], "tags": {"amenity": "pharmacy", "building": "commercial", "healthcare": "pharmacy"}}, {"type": "way", "id": 363153848, "nodes": [2949552056, 3673440881, 3673440883, 3673440882, 3673440879, 3673440878, 2949552056], "tags": {"addr:city": "Montr\u00e9al", "addr:housenumber": "4290", "addr:postcode": "H1V 0B1", "addr:street": "Rue Ontario Est", "amenity": "pharmacy", "brand": "Pharmaprix", "brand:wikidata": "Q1820137", "brand:wikipedia": "fr:Pharmaprix", "building": "commercial", "building:levels": "1", "healthcare": "pharmacy", "name": "Pharmaprix", "opening_hours": "Mo-Su 09:00-22:00", "operator": "Sophie-Audrey Miron", "roof:levels": "0", "roof:shape": "flat", "website": "https://www.pharmaprix.ca/en/store-locator/store/1908", "website:en": "https://www.pharmaprix.ca/en/store-locator/store/1908", "website:fr": "https://www.pharmaprix.ca/fr/store-locator/store/1908"}}, {"type": "way", "id": 423676926, "nodes": [4232305285, 4232305286, 4232305287, 4232305288, 4232306090, 4232306091, 4232305285], "tags": {"addr:city": "Montr\u00e9al", "addr:housenumber": "9200", "addr:postcode": "H1R 2B7", "addr:street": "Boulevard Lacordaire", "amenity": "pharmacy", "brand": "Familiprix", "brand:wikidata": "Q3064881", "brand:wikipedia": "en:Familiprix", "building": "yes", "drive_through": "no", "healthcare": "pharmacy", "name": "Familiprix", "opening_hours": "Mo-Fr 09:00-21:00; Sa-Su 09:00-18:00", "operator": "Boumediene Sellaf", "phone": "+1-514-321-3222", "website": "https://www.familiprix.com/fr/pharmacies/michael-attia-b2e0dc5e-3b0e-4602-a26c-c35820b5ec0f"}}, {"type": "way", "id": 491822685, "nodes": [4839124338, 4839124339, 4839124340, 4839124341, 4839124342, 4839124338], "tags": {"addr:city": "Montr\u00e9al", "addr:housenumber": "10305", "addr:postcode": "H3L 2P1", "addr:province": "QC", "addr:street": "Boulevard Saint-Laurent", "amenity": "pharmacy", "brand": "Pharmaprix", "brand:wikidata": "Q1820137", "brand:wikipedia": "fr:Pharmaprix", "building": "yes", "dispensing": "yes", "drive_through": "no", "email": "fphx1808@pharmaprix.ca", "healthcare": "pharmacy", "name": "Pharmaprix", "opening_hours": "9:00-22:00", "operator": "Shoppers Drug Mart inc.", "phone": "+1-514-389-1551", "website": "https://www.pharmaprix.ca/en/store-locator/store/1808", "website:en": "https://www.pharmaprix.ca/en/store-locator/store/1808", "website:fr": "https://www.pharmaprix.ca/fr/store-locator/store/1808"}}, {"type": "way", "id": 544416187, "nodes": [5262720341, 5262720342, 5262720343, 5262720344, 9626845237, 5262720341], "tags": {"amenity": "pharmacy", "brand": "Jean Coutu", "brand:wikidata": "Q3117457", "brand:wikipedia": "fr:Groupe Jean Coutu", "building": "yes", "healthcare": "pharmacy", "name": "Jean Coutu"}}, {"type": "way", "id": 547330065, "nodes": [5288450102, 5288450101, 5288450058, 9660865165, 9660865166, 9660865167, 5288450059, 5288450060, 5288450102], "tags": {"addr:housenumber": "6562,6564,6566", "addr:street": "Boulevard Monk", "amenity": "pharmacy", "branch": "Clinique H\u00e9bert et Khoder (pharmacie affili\u00e9e)", "brand": "Familiprix", "brand:wikidata": "Q3064881", "brand:wikipedia": "fr:Familiprix", "building": "retail", "healthcare": "pharmacy", "name": "Familiprix", "opening_hours": "Mo-Fr 09:00-19:00; Sa 09:00-17:00; Su 10:00-17:00"}}, {"type": "way", "id": 548914672, "nodes": [5302611823, 9784007471, 9783968175, 9783968178, 9783968177, 9783968176, 9784007472, 5302611826, 5302611823], "tags": {"addr:city": "Montr\u00e9al", "addr:housenumber": "6160", "addr:street": "Rue Laurendeau", "amenity": "pharmacy", "branch": "Sant\u00e9", "brand": "Uniprix", "brand:wikidata": "Q683265", "building": "yes", "healthcare": "pharmacy", "name": "Uniprix", "operator": "Uniprix"}}, {"type": "way", "id": 904481907, "nodes": [8400032205, 8400032206, 8400032207, 8400032202, 11711827867, 11711850069, 11711827868, 11711850072, 11711850071, 11711850070, 8400032204, 8400032203, 8400032205], "tags": {"addr:city": "Montr\u00e9al", "addr:housenumber": "5955", "addr:postcode": "H1N 1B7", "addr:province": "QC", "addr:street": "Rue Sherbrooke Est", "amenity": "pharmacy", "brand": "Proxim", "brand:wikidata": "Q3408523", "brand:wikipedia": "en:Proxim", "building": "yes", "healthcare": "pharmacy", "name": "Proxim"}}, {"type": "way", "id": 1021742065, "nodes": [9423489274, 208768477, 9423489272, 9423489271, 9423489274], "tags": {"amenity": "pharmacy", "brand": "Jean Coutu", "brand:wikidata": "Q3117457", "brand:wikipedia": "fr:Groupe Jean Coutu", "dispensing": "yes", "healthcare": "pharmacy", "indoor": "room", "level": "-1", "level_name": "Metro Level", "name": "Jean Coutu"}}, {"type": "way", "id": 1102617185, "nodes": [10089749542, 10089749545, 10089749546, 10089749547, 10089749548, 10089749549, 10103796037, 10103796038, 10089749542], "tags": {"addr:street": "90e Avenue", "amenity": "pharmacy", "brand": "Proxim", "brand:wikidata": "Q3408523", "building": "yes", "dispensing": "yes", "healthcare": "pharmacy", "name": "Proxim"}}, {"type": "way", "id": 1204963162, "nodes": [11167420085, 11167420086, 11167420087, 11167420088, 11167420089, 11167420090, 11167420085], "tags": {"addr:housenumber": "8630", "addr:postcode": "H1R 2T7", "addr:street": "Boulevard Viau", "amenity": "pharmacy", "brand": "Jean Coutu", "brand:wikidata": "Q3117457", "building": "retail", "healthcare": "pharmacy", "name": "Jean Coutu", "phone": "+1-514-327-9600", "roof:shape": "flat", "website": "https://www.jeancoutu.com/localisateur-succursale/saint-leonard-8630-boulevard-viau-h1r-2t7/278/"}}, {"type": "way", "id": 1218907661, "nodes": [11173243513, 11173243514, 11294512983, 11294512984, 11173243513], "tags": {"amenity": "pharmacy", "brand": "Uniprix", "brand:wikidata": "Q683265", "building": "yes", "healthcare": "pharmacy", "name": "Uniprix"}}, {"type": "way", "id": 1236339511, "nodes": [11479316100, 11479316101, 11479316102, 11479316103, 11479316100], "tags": {"addr:housenumber": "4240", "addr:street": "Rue Beaubien Est", "amenity": "pharmacy", "branch": "P. Lapointe N. S\u00e9vigny", "brand": "Uniprix", "brand:wikidata": "Q683265", "building": "yes", "healthcare": "pharmacy", "name": "Uniprix"}}, {"type": "way", "id": 1248741231, "nodes": [11607194085, 11607194086, 11607194087, 11607194088, 11607194085], "tags": {"amenity": "pharmacy", "brand": "Pharmaprix", "brand:wikidata": "Q1820137", "building": "yes", "healthcare": "pharmacy", "name": "Pharmaprix", "website": "https://www.pharmaprix.ca/en/store-locator/store/78", "website:en": "https://www.pharmaprix.ca/en/store-locator/store/78", "website:fr": "https://www.pharmaprix.ca/fr/store-locator/store/78"}}]}